ID,Isconfidential,ProjectName,Street,City,State,Zipcode,Country,LEEDSystemVersionDisplayName,PointsAchieved,CertLevel,CertDate,IsCertified,OwnerTypes,GrossFloorArea,UnitOfMeasurement,TotalPropArea,ProjectTypes,OwnerOrganization,RegistrationDate
1000044043,No,Alameda Free Library,1550 Oak Street,Alameda,CA,94501,US,LEED v4 O+M: EB,61,Gold,2015-08-05 00:00:00,Yes,"Government Use: Local, City",45000.0000,Sq ft,,Public Assembly: Library,City of Alameda,2014-06-23 00:00:00
1000045106,No,Downey Energy Resource Center,9240 Firestone Blvd.,Downey,CA,90241-5388,US,LEED v4 O+M: EB,82,Platinum,2015-05-26 00:00:00,Yes,"Government Use: Other (utility, air",46261.0000,Sq ft,,Other,Southern California Gas Company,2014-07-17 00:00:00
1000045286,No,Palmer Events Center,900 Barton Springs Rd,Austin,TX,78704,US,LEED v4 O+M: EB WP,55,Silver,2019-07-30 00:00:00,Yes,"Government Use: Local, City",132770.0000,Sq ft,,Assembly,Austin Convention Center Dept,2014-07-21 00:00:00
1000045608,No,Casa Natura Villa Santi - LEED v4 BETA,Montagne - Trento,Trento,TN,38100,IT,LEED v4 O+M: HP,65,Gold,2015-01-07 00:00:00,Yes,Non-Profit (that do not fit into ot,1200.0000,Sq m,,"Lodging: Hotel/Motel/Resort, Full Service",Parco Naturale Adamello Brenta,2014-08-06 00:00:00
1000052384,No,1828 L St. NW Recertification,1828 L St. NW,Washington,DC,20036,US,LEED v4 O+M: EB,71,Gold,2016-07-19 00:00:00,Yes,Corporate: Privately Held,328724.0000,Sq ft,, ,The Tower Companies,2014-11-20 00:00:00
1000053636,No,Minneapolis Convention Center,1301 Second Ave S,Minneapolis,MN,55403,US,LEED v4 O+M: EB,47,Certified,2017-06-28 00:00:00,Yes,"Government Use: Local, City",1600000.0000,Sq ft,,Public Assembly: Convention Center,Minneapolis Convention Center,2015-01-12 00:00:00
1000058055,No,Hotel City Express Puebla Angelopolis,"Circuito Juan Pablo II #1755, Col. La Noria",Puebla,PUE,72410,MX,LEED v4 O+M: HP,51,Silver,2016-08-30 00:00:00,Yes,Corporate: Privately Held,4538.0000,Sq ft,, ,City Express,2015-05-25 00:00:00
1000058056,No,Hotel City Express Los Mochis,"proyecto  Blvd. Centenario #1135 Sector Centro, Col. Las del",Los Mochis,SIN,81277,MX,LEED v4 O+M: HP,52,Silver,2017-06-16 00:00:00,Yes,Corporate: Privately Held,4428.0000,Sq ft,, ,CITY EXPRESS,2015-05-25 00:00:00
1000059794,No,Oficinas Setri,cll 65 # 2 -01,Bogota, ,110231,CO,LEED v4 O+M: EB,63,Gold,2017-03-31 00:00:00,Yes,Corporate: Privately Held,2800.0000,Sq ft,, ,Setri Sustentabilidad SAS,2015-07-13 00:00:00
1000064451,No,270 Albert Street,270 Albert Street,Ottawa,ON,K1P 6E6,CA,LEED v4 O+M: EB,67,Gold,2016-10-03 00:00:00,Yes,Corporate: Privately Held,15205.0000,Sq m,, ,6763332 Canada Inc.,2015-11-19 00:00:00
1000074792,No,Vancouver Convention Centre West,1055 Canada Place,Vancouver,BC,V6C 0C3,CA,LEED v4 O+M: EB,87,Platinum,2017-04-21 00:00:00,Yes,Government Use: State,108250.0000,Sq ft,,Public Assembly: Convention Center,Pavco,2016-08-03 00:00:00
1000074979,No,Joseph C. Blumel Residence Hall,1705 SW 11th Avenue,Portland,OR,97201,US,LEED v4 O+M: EB WP,77,Gold,2018-08-07 00:00:00,Yes,,124607.0000,Sq ft,,Lodging: Dormitory, ,2016-08-10 00:00:00
1000075303,No,"IFFCO Bhawan, Lucknow","8, Gokhle Marg",Lucknow,Uttar Pradesh,226001,IN,LEED v4 O+M: EB WP,71,Gold,2017-09-21 00:00:00,Yes,Corporate:Publicly Traded,17383.7000,Sq ft,, ,IFFCO,2016-08-17 00:00:00
1000077696,No,The Riviera Hotel Recertification,"646 Linsen N. Rd. Taipei, 105 Taiwan",Taipei,TWN,105,TW,LEED v4 O+M: EB,87,Platinum,2021-04-07 00:00:00,Yes,Corporate: Privately Held,87640.0000,Sq ft,,"Lodging: Hotel/Motel/Resort, Full Service",THE RIVIERA HOTEL,2016-09-20 00:00:00
1000079089,No,1700 Market Street,1700 Market St,Philadelphia,PA,19103,US,LEED v4 O+M: EB WP,80,Platinum,2018-12-07 00:00:00,Yes,Investor: Equity Fund,934085.0000,Sq ft,, ,1700 Market Street Associates L.P.,2016-10-01 00:00:00
1000088846,No,Long Beach Library,200 W. Broadway,Long Beach,CA,90802,US,LEED v4 O+M: EB,63,Gold,2021-07-23 00:00:00,Yes,"Government Use: Local, City",92000.0000,Sq ft,,Public Assembly: Library,"City of Long Beach, California",2016-10-24 00:00:00
1000095528,No,Hyatt Regency San Francisco Airport,1333 Bayshore Highway,Burlingame,CA,94010,US,LEED v4 O+M: EB WP,71,Gold,2018-08-07 00:00:00,Yes,"Investor: REIT, Non-traded",650000.0000,Sq ft,,"Lodging: Hotel/Motel/Resort, Limited Service",Hyatt Hotels Corporation,2016-10-31 00:00:00
1000096370,No,Station Place 2,600 2nd Street NE,Washington,DC,20002,US,LEED v4 O+M: EB,71,Gold,2017-08-15 00:00:00,Yes,"Investor: REIT, Non-traded",391885.0000,Sq ft,, ,"600 Second Street Holdings, LLC",2016-11-23 00:00:00
1000096574,No,Mount Rushmore Concessions Building,13000 Hwy 244 Building 81,Keystone,SD,57751-4401,US,LEED v4 O+M: EB,83,Platinum,2020-05-26 00:00:00,Yes,Government Use: Federal,44498.0000,Sq ft,,Retail: Other Retail,National Park Service,2016-11-29 00:00:00
1000096870,No,FSP 303 East Wacker Drive LLC,303 East Wacker Drive,Chicago,IL,60601,US,LEED v4 O+M: EB WP,64,Gold,2017-06-16 00:00:00,Yes,,1015129.0000,Sq ft,, ,,2016-12-02 00:00:00
1000097455,No,"Vivanta by Taj, Guwahati","Nikita Complex, G S Road",Guwahati,Assam,781022,IN,LEED v4 O+M: HP,69,Gold,2018-04-24 00:00:00,Yes,Corporate: Privately Held,243538.0000,Sq ft,,"Lodging: Hotel/Motel/Resort, Full Service",The Indian Hotels Company Limited,2017-01-02 00:00:00
1000098624,No,Kantishna Roadhouse - Main Lodge,1000 Park Service Road,Denali,AK,99755,US,LEED v4 O+M: EB,61,Gold,2018-04-04 00:00:00,Yes,Corporate: Privately Held,7510.0000,Sq ft,,Lodging: Other lodging,Doyon Limited,2017-03-03 00:00:00
1000098896,No,"Terminal 3, IGI Airport","Terminal 3, IGI Airport",New Delhi,Delhi,110037,IN,LEED v4 O+M: EB WP,80,Platinum,2018-10-09 00:00:00,Yes,,3029190.4330,Sq ft,,Airport: Terminal/Concourse,,2017-03-17 00:00:00
1000098906,No,BIRLA CENTURY,"826, GIDC Industrial Estate, Jhagadia",Bharuch,Gujarat,393110,IN,LEED v4 O+M: EB,70,Gold,2017-08-04 00:00:00,Yes,Corporate: Privately Held,267988.0000,Sq m,, ,BIRLA CENTURY,2017-03-18 00:00:00
1000099254,No,Mandi House,Mandi House,Delhi,Delhi,110047,IN,LEED v4 O+M: Transit,58,Silver,2018-01-23 00:00:00,Yes,,82074.0000,Sq ft,, ,,2017-04-10 00:00:00
1000099261,No,Hauz Khas Metro Station,Hauz Khas,Delhi,Delhi,110016,IN,LEED v4 O+M: Transit,68,Gold,2018-04-25 00:00:00,Yes,,254954.0000,Sq ft,, ,,2017-04-10 00:00:00
1000099262,No,Laxmi Nagar Metro Station,Laxmi Nagar,Delhi,Delhi,110092,IN,LEED v4 O+M: Transit,77,Gold,2017-11-01 00:00:00,Yes,,77855.0000,Sq ft,, ,,2017-04-10 00:00:00
1000099263,No,Rajiv Chowk Metro Station,Cannaught Place,Delhi, ,110001,IN,LEED v4 O+M: Transit,73,Gold,2018-01-23 00:00:00,Yes,,454452.0000,Sq ft,, ,,2017-04-10 00:00:00
1000099288,No,Pragati Maidan Metro Station,Pragati Maidan,Delhi, ,110001,IN,LEED v4 O+M: Transit,74,Gold,2017-11-01 00:00:00,Yes,,216287.0000,Sq ft,, ,,2017-04-11 00:00:00
1000099400,No,"Hospital Sultanah Maliha, Langkawi",HOSPITAL LANGKAWI,LANGKAWI,KED,07000,MY,LEED v4 O+M: EB,61,Gold,2020-05-12 00:00:00,Yes,"Government Use: Local, City",438553.5777,Sq m,,Healthcare: Inpatient,Ministry of Health Malaysia,2017-04-20 00:00:00
1000099744,No, Beijing Yintai Centre,"Beijing Yintai Centre,Jianguomenwai road,Chaoyang District,B",Beijing, ,100022,CN,LEED v4 O+M: EB,86,Platinum,2017-11-27 00:00:00,Yes,Investor: Equity Fund,78019.0000,Sq m,, ,"BEIJING YINTAI PROPERTY CO.,LTD",2017-05-16 00:00:00
1000100060,No,Hawaii Convention Center,1801 Kalakaua Avenue,Honolulu,HI,96815,US,LEED v4 O+M: EB WP,62,Gold,2018-07-23 00:00:00,Yes,Government Use: State,663472.0000,Sq ft,,Public Assembly: Convention Center,State of Hawaii,2017-06-05 00:00:00
1000100161,No,Mark Goodson Building,444 S. Vicente Blvd.,Los Angeles,CA,90048,US,LEED v4 O+M: EB WP,60,Gold,2018-05-04 00:00:00,Yes,Non-Profit (that do not fit into ot,113387.0000,Sq ft,,Healthcare: Outpatient Office (Diagnostic),Cedars-Sinai Medical Center,2017-06-13 00:00:00
1000101642,No,Grace Farms - O+M : EB,365 Lukes Wood Rd.,New Canaan,CT,06840,US,LEED v4 O+M: EB,51,Silver,2019-08-06 00:00:00,Yes,Non-Profit (that do not fit into ot,82108.0000,Sq ft,,Public Assembly: Other Assembly,Grace Farms Foundation Inc.,2017-08-17 00:00:00
1000101778,No,Schaumburg Corporate Center,1475 / 1501 / 1515 E Woodfield Rd,Schaumburg,IL,60173,US,LEED v4 O+M: EB,62,Gold,2018-06-19 00:00:00,Yes,Corporate: Privately Held,1313895.0000,Sq ft,, ,"GlenStar Properties, LLC",2017-08-29 00:00:00
1000102075,No,Makro Tunja,Avenida Universitaria con Calle 35,Tunja,BOYACA,150001,CO,LEED v4 O+M: EB,63,Gold,2019-02-15 00:00:00,Yes,Main Street Organization,6085.0000,Sq m,,Retail: Other Retail,Makro Supermayorista SAS,2017-09-18 00:00:00
1000102904,No,7201 Wisconsin Recertification,7201 Wisconsin Avenue,Bethesda,MD,20814,US,LEED v4 O+M: EB,54,Silver,2018-05-11 00:00:00,Yes,Corporate: Privately Held,165571.0000,Sq ft,, ,"7201 Wisconsin Ave, LLC",2017-10-10 00:00:00
1000103083,No,The Executive Building - Recertification,"1030 15th Street, NW",Washington,DC,20005,US,LEED v4 O+M: EB,60,Gold,2018-05-10 00:00:00,Yes,Corporate: Privately Held,356889.0000,Sq ft,, ,"Unizo Real Estate DC Five, LLC",2017-10-18 00:00:00
1000105135,No,70 Cremazie - Place Montcalm Phase III,70 Cremazie Street,Gatineau,QC,J8Y 3P2,CA,LEED v4 O+M: EB,54,Silver,2018-06-13 00:00:00,Yes,Corporate: Privately Held,395142.7700,Sq m,, ,Multivesco,2018-01-25 00:00:00
1000105285,No,Software Development Block SDB 2,"Plot No. 1, Rajiv Gandhi Technology Park, Kishangarh",Chandigarh,Chandigarh,160101,IN,LEED v4 O+M: EB,89,Platinum,2018-08-10 00:00:00,Yes,Corporate: Privately Held,223440.0000,Sq ft,, ,INFOSYS LIMITED,2018-01-30 00:00:00
1000105301,No,Software Development Block SDB 1,"Plot No. 1, Rajiv Gandhi Technology Park, Kishangarh",Chandigarh,Chandigarh,160101,IN,LEED v4 O+M: EB,90,Platinum,2018-08-10 00:00:00,Yes,Corporate: Privately Held,360131.0000,Sq ft,, ,INFOSYS LIMITED,2018-01-30 00:00:00
1000105751,No,CCMB - Teatros,Carretera Federal Mexico # Texcoco Km. 33.5,Texcoco,MEX,04000,MX,LEED v4 O+M: EB WP,74,Gold,2019-06-17 00:00:00,Yes,"Government Use: Local, City",12800.0000,Sq m,,Public Assembly: Entertainment,Concecutex SA De CV,2018-02-17 00:00:00
1000107655,No,Meccanica,Via Varesina 158/162,Milan,MI,20156,IT,LEED v4 O+M: EB,61,Gold,2018-10-15 00:00:00,Yes,,3681.0000,Sq m,, , ,2018-04-27 00:00:00
1000107710,No,Orchestra Hall,1111 Nicollet Mall,Minneapolis,MN,55403,US,LEED v4 O+M: EB,50,Silver,2019-09-26 00:00:00,Yes,Non-Profit (that do not fit into ot,130177.0000,Sq ft,,Public Assembly: Entertainment,Minnesota Orchestra,2018-05-01 00:00:00
1000107855,No,"Karlslund 5:2, byggnad 305",Fyrvallavogen 1-5,Ostersund,Blekinge Lõn,831 43,SE,LEED v4.1 O+M: EB,57,Silver,2022-02-28 00:00:00,Yes,Corporate: Publicly Traded,1750.0000,Sq m,,Service: Vehicle Service/Repair,Kungsleden AB,2018-05-07 00:00:00
1000107866,No,"Karlslund 5:2, byggnad 302",Fyrvallavogen 1-5,Ostersund,Blekinge Lõn,831 43,SE,LEED v4.1 O+M: EB,70,Gold,2020-11-13 00:00:00,Yes,Corporate: Publicly Traded,1835.0000,Sq m,,Public Assembly: Stadium/Arena,Kungsleden AB,2018-05-07 00:00:00
1000108027,No,Atlantic City Convention Center,One Convention Blvd,Atlantic City,NJ,08401,US,LEED v4 O+M: EB,65,Gold,2019-02-25 00:00:00,Yes,"Government Use: Other (utility, air",989000.0000,Sq ft,,Public Assembly: Convention Center,Atlantic City Convention Center,2018-05-10 00:00:00
1000108269,No,Rajendra Place,"Metro Bhawan,Fire Brigade Lane, Barakhamba Road, New Delhi",New Delhi,Delhi,110001,IN,LEED v4 O+M: Transit,79,Gold,2021-03-31 00:00:00,Yes,Government Use: State,22928.0000,Sq ft,,Transit: Station,Delhi Metro Rail Corporation,2018-05-22 00:00:00
1000108292,No,Karol Bagh,"Metro Bhawan,Fire Brigade Lane, Barakhamba Road, New Delhi",New Delhi,Delhi,110001,IN,LEED v4 O+M: Transit,77,Gold,2021-03-31 00:00:00,Yes,Government Use: State,18492.0000,Sq ft,,Transit: Station,Delhi Metro Rail Corporation,2018-05-22 00:00:00
1000108300,No,PATEL NAGAR,"Metro Bhawan,Fire Brigade Lane, Barakhamba Road, New Delhi",New Delhi,Delhi,110001,IN,LEED v4 O+M: Transit,72,Gold,2021-03-31 00:00:00,Yes,Government Use: State,18281.0000,Sq ft,,Transit: Station,Delhi Metro Rail Corporation,2018-05-22 00:00:00
1000108305,No,Seward Johnson Center for the Arts,80 Sculptors Way,Hamilton,NJ,08619,US,LEED v4.1 O+M: EB,64,Gold,2019-03-19 00:00:00,Yes,Non-Profit (that do not fit into ot,75665.0000,Sq ft,,Public Assembly: Other Assembly,Grounds for Sculpture,2018-05-22 00:00:00
1000108351,No,GOLF COURSE,"Metro Bhawan, Fire Brigade Lane,  Barakhamba Road",New Delhi,Delhi,110001,IN,LEED v4 O+M: Transit,74,Gold,2021-03-31 00:00:00,Yes,"Government Use: Local, City",7044.0000,Sq m,,Transit: Station,Delhi Metro Rail Corporation,2018-05-24 00:00:00
1000108352,No,BOTANICAL GARDEN- Blue Line,"Metro Bhawan, Fire Brigade Lane,  Barakhamba Road",New Delhi,Delhi,110001,IN,LEED v4 O+M: Transit,66,Gold,2021-03-31 00:00:00,Yes,"Government Use: Local, City",73356.0000,Sq ft,,Transit: Station,Delhi Metro Rail Corporation,2018-05-24 00:00:00
1000108357,No,Akshardham,Akshardham Metro Station,Delhi,Delhi,110092,IN,LEED v4 O+M: Transit,72,Gold,2021-03-31 00:00:00,Yes,"Government Use: Local, City",123440.0000,Sq ft,,Transit: Station,Delhi Metro Rail Corporation,2018-05-25 00:00:00
1000108358,No,Dwarka Sector 12,Dwarka Sector 12 Metro Station,New Delhi,Delhi,110078,IN,LEED v4 O+M: Transit,75,Gold,2021-03-31 00:00:00,Yes,"Government Use: Local, City",6050.0000,Sq m,,Transit: Station,Delhi Metro Rail Corporation,2018-05-25 00:00:00
1000108359,No,Dwarka Sector 10,Dwarka Sector 10 Metro Station,New Delhi,Delhi,110075,IN,LEED v4 O+M: Transit,79,Gold,2021-03-31 00:00:00,Yes,"Government Use: Local, City",6054.0000,Sq m,,Transit: Station,Delhi Metro Rail Corporation,2018-05-25 00:00:00
1000108363,No,Noida City Centre,"Metro Bhawan, Fire Brigade Lane, Barakhamba Road, New Delhi",DELHI,Delhi,110001,IN,LEED v4 O+M: Transit,69,Gold,2021-03-31 00:00:00,Yes,"Government Use: Local, City",67005.0000,Sq ft,,Transit: Station,Delhi Metro Rail Corporation,2018-05-24 00:00:00
1000108376,No,Jhandewalan,"Metro Bhawan,Fire Brigade Lane, Barakhamba Road, New Delhi",New Delhi,Delhi,110001,IN,LEED v4 O+M: Transit,74,Gold,2021-03-31 00:00:00,Yes,Government Use: State,11734.0000,Sq ft,,Transit: Station,Delhi Metro Rail Corporation,2018-05-25 00:00:00
1000108377,No,Indraprastha,"Metro Bhawan,Fire Brigade Lane, Barakhamba Road, New Delhi",New Delhi,Delhi,110001,IN,LEED v4 O+M: Transit,65,Gold,2021-03-31 00:00:00,Yes,Government Use: State,21980.0000,Sq ft,,Transit: Station,Delhi Metro Rail Corporation,2018-05-25 00:00:00
1000108378,No,Noida Sector 15,Noida Sector -15 metro station,Noida,Uttar Pradesh,201301,IN,LEED v4 O+M: Transit,68,Gold,2021-03-31 00:00:00,Yes,"Government Use: Local, City",67519.0000,Sq ft,,Transit: Station,Delhi Metro Rail Corporation,2018-05-25 00:00:00
1000108379,No,Yamuna Bank,Yamuna Bank Metro Station,New Delhi,Delhi,110092,IN,LEED v4 O+M: Transit,59,Silver,2021-03-31 00:00:00,Yes,"Government Use: Local, City",106132.0000,Sq ft,,Transit: Station,Delhi Metro Rail Corporation,2018-05-25 00:00:00
1000108383,No,Noida Sector 18,Noida Sector -18 metro station,Noida,Uttar Pradesh,201301,IN,LEED v4 O+M: Transit,73,Gold,2021-03-31 00:00:00,Yes,"Government Use: Local, City",65893.0000,Sq ft,,Transit: Station,Delhi Metro Rail Corporation,2018-05-25 00:00:00
1000108384,No,Noida Sector 16,Noida Sector -16 metro station,Noida,Uttar Pradesh,201301,IN,LEED v4 O+M: Transit,72,Gold,2021-03-31 00:00:00,Yes,"Government Use: Local, City",67339.0000,Sq ft,,Transit: Station,Delhi Metro Rail Corporation,2018-05-25 00:00:00
1000108385,No,Mayur Vihar Phase-1- Blue Line,Mayur Vihar Phase-1 Metro Station,New Delhi,Delhi,110091,IN,LEED v4 O+M: Transit,73,Gold,2021-03-31 00:00:00,Yes,"Government Use: Local, City",91321.0000,Sq ft,,Transit: Station,Delhi Metro Rail Corporation,2018-05-25 00:00:00
1000108386,No,Anand Vihar- Blue Line,Anand Vihar Metro Station,Delhi,Delhi,110092,IN,LEED v4 O+M: Transit,65,Gold,2021-03-31 00:00:00,Yes,"Government Use: Local, City",129032.0000,Sq ft,,Transit: Station,Delhi Metro Rail Corporation,2018-05-25 00:00:00
1000108387,No,Vaishali,Vaishali Metro Station,Ghaziabad,Uttar Pradesh,201010,IN,LEED v4 O+M: Transit,73,Gold,2021-03-31 00:00:00,Yes,"Government Use: Local, City",16788.0000,Sq m,,Transit: Station,Delhi Metro Rail Corporation,2018-05-25 00:00:00
1000108395,No,Shadipur,"Main Patel Rd, Block W, DTC Colony, Shadipur, New Delhi",New Delhi,Delhi,110008,IN,LEED v4 O+M: Transit,76,Gold,2021-03-31 00:00:00,Yes,Government Use: State,20117.0000,Sq ft,,Transit: Station,Delhi Metro Rail Corporation,2018-05-25 00:00:00
1000108396,No,Kirti Nagar- Blue Line,"Karampura Flyover, Block 1, Kirti Nagar Industrial Area",Kirti Nagar,Delhi,110015,IN,LEED v4 O+M: Transit,66,Gold,2021-03-31 00:00:00,Yes,Government Use: State,41534.0000,Sq ft,,Transit: Station,Delhi Metro Rail Corporation,2018-05-25 00:00:00
1000108398,No,New Ashok Nagar,New Ashok Nagar Metro Station,New Delhi,Delhi,110096,IN,LEED v4 O+M: Transit,75,Gold,2021-03-31 00:00:00,Yes,"Government Use: Local, City",65638.0000,Sq ft,,Transit: Station,Delhi Metro Rail Corporation,2018-05-25 00:00:00
1000108399,No,Mayur Vihar Extension,Mayur Vihar Extension Metro Station,Delhi,Delhi,110091,IN,LEED v4 O+M: Transit,67,Gold,2021-03-31 00:00:00,Yes,"Government Use: Local, City",91332.0000,Sq ft,,Transit: Station,Delhi Metro Rail Corporation,2018-05-25 00:00:00
1000108401,No,Nirman Vihar,Nirman Vihar Metro Station,New Delhi,Delhi,110092,IN,LEED v4 O+M: Transit,76,Gold,2021-03-31 00:00:00,Yes,"Government Use: Local, City",60513.0000,Sq ft,,Transit: Station,Delhi Metro Rail Corporation,2018-05-25 00:00:00
1000108402,No,Preet Vihar,Preet Vihar Metro Station,New Delhi,Delhi,110092,IN,LEED v4 O+M: Transit,75,Gold,2021-03-31 00:00:00,Yes,"Government Use: Local, City",61049.0000,Sq ft,,Transit: Station,Delhi Metro Rail Corporation,2018-05-25 00:00:00
1000108403,No,Karkarduma Metro Station- Blue Line,Karkarduma Metro Station,New Delhi,Delhi,110092,IN,LEED v4 O+M: Transit,71,Gold,2021-03-31 00:00:00,Yes,"Government Use: Local, City",154423.0000,Sq ft,,Transit: Station,Delhi Metro Rail Corporation,2018-05-25 00:00:00
1000108404,No,Kaushambi,Kaushambi Metro Station,Ghaziabad,Uttar Pradesh,201010,IN,LEED v4 O+M: Transit,75,Gold,2021-03-31 00:00:00,Yes,"Government Use: Local, City",7217.0000,Sq m,,Transit: Station,Delhi Metro Rail Corporation,2018-05-25 00:00:00
1000108410,No,Dwarka Sector 13,Dwarka Sector 13 metro station,New Delhi,Delhi,110078,IN,LEED v4 O+M: Transit,77,Gold,2021-03-31 00:00:00,Yes,"Government Use: Local, City",6017.0000,Sq m,,Transit: Station,Delhi Metro Rail Corporation,2018-05-25 00:00:00
1000108411,No,Dwarka Sector 11,Dwarka Sector 11 Metro Station,New Delhi,Delhi,110075,IN,LEED v4 O+M: Transit,74,Gold,2021-03-31 00:00:00,Yes,"Government Use: Local, City",6038.0000,Sq m,,Transit: Station,Delhi Metro Rail Corporation,2018-05-25 00:00:00
1000108412,No,Dwarka Sector 8,Dwarka Sector 8 Metro Station,New Delhi,Delhi,110077,IN,LEED v4 O+M: Transit,75,Gold,2021-03-31 00:00:00,Yes,"Government Use: Local, City",6313.0000,Sq m,,Transit: Station,Delhi Metro Rail Corporation,2018-05-25 00:00:00
1000108420,No,Dwarka Sector 9,Dwarka Sector 9 Metro Station,New Delhi,Delhi,110075,IN,LEED v4 O+M: Transit,76,Gold,2021-03-31 00:00:00,Yes,"Government Use: Local, City",6285.0000,Sq m,,Transit: Station,Delhi Metro Rail Corporation,2018-05-25 00:00:00
1000108426,No,Tilak Nagar,"Shivaji Marg Flyover, Prem Nagar, Tilak Nagar",New Delhi,Delhi,110018,IN,LEED v4 O+M: Transit,74,Gold,2021-03-31 00:00:00,Yes,Government Use: State,74886.0000,Sq ft,,Transit: Station,Delhi Metro Rail Corporation,2018-05-29 00:00:00
1000108427,No,Dwarka Sector 14,"Pocket 1, Sector 14 Dwarka, Dwarka",New Delhi,Delhi,110075,IN,LEED v4 O+M: Transit,77,Gold,2021-03-31 00:00:00,Yes,Government Use: State,6031.0000,Sq m,,Transit: Station,Delhi Metro Rail Corporation,2018-05-29 00:00:00
1000108433,No,Uttam Nagar West,"Najafgarh Road, Param Puri, Uttam Nagar, New Delhi",New Delhi,Delhi,110059,IN,LEED v4 O+M: Transit,77,Gold,2021-03-31 00:00:00,Yes,Government Use: State,64595.0000,Sq ft,,Transit: Station,Delhi Metro Rail Corporation,2018-05-28 00:00:00
1000108436,No,Janakpuri East,"Nangli Jalib, Janakpuri, New Delhi",New Delhi,Delhi,110058,IN,LEED v4 O+M: Transit,76,Gold,2021-03-31 00:00:00,Yes,Government Use: State,61085.0000,Sq ft,,Transit: Station,Delhi Metro Rail Corporation,2018-05-29 00:00:00
1000108437,No,Tagore Garden,"Najafgarh Road, Block BF, Rajouri Garden Extension",New Delhi,Delhi,110027,IN,LEED v4 O+M: Transit,70,Gold,2021-03-31 00:00:00,Yes,Government Use: State,17474.0000,Sq ft,,Transit: Station,Delhi Metro Rail Corporation,2018-05-29 00:00:00
1000108441,No,Uttam Nagar East,"Shish ram park, A-62/3, Chatrapati Shivaji Marg, Block D",New Delhi,Delhi,110059,IN,LEED v4 O+M: Transit,79,Gold,2021-03-31 00:00:00,Yes,Government Use: State,66682.0000,Sq ft,,Transit: Station,Delhi Metro Rail Corporation,2018-05-28 00:00:00
1000108455,No,Janakpuri West- Blue Line,"Shivaji Marg, Janakpuri District Center, Janakpuri",New Delhi,Delhi,110058,IN,LEED v4 O+M: Transit,80,Platinum,2021-03-31 00:00:00,Yes,Government Use: State,63722.0000,Sq ft,,Transit: Station,Delhi Metro Rail Corporation,2018-05-29 00:00:00
1000108457,No,Subhash Nagar,"Najafgarh Rd, Meenakshi Garden, Ashok Nagar",New Delhi,Delhi,110018,IN,LEED v4 O+M: Transit,67,Gold,2021-03-31 00:00:00,Yes,Government Use: State,14870.0000,Sq ft,,Transit: Station,Delhi Metro Rail Corporation,2018-05-29 00:00:00
1000108458,No,Nawada,"Uttam Nagar, Delhi",New Delhi,Delhi,110059,IN,LEED v4 O+M: Transit,79,Gold,2021-03-31 00:00:00,Yes,Government Use: State,64498.0000,Sq ft,,Transit: Station,Delhi Metro Rail Corporation,2018-05-29 00:00:00
1000108459,No,Dwarka- Blue Line,"Nand Vihar, Sector 16A, Dwarka, New Delhi",New Delhi,Delhi,110078,IN,LEED v4 O+M: Transit,68,Gold,2021-03-31 00:00:00,Yes,Government Use: State,56653.0000,Sq ft,,Transit: Station,Delhi Metro Rail Corporation,2018-05-29 00:00:00
1000108461,No,Dwarka Mor,"Metro Bhawan,Fire Brigade Lane, Barakhamba Road, New Delhi",New Delhi,Delhi,110001,IN,LEED v4 O+M: Transit,78,Gold,2021-03-31 00:00:00,Yes,Government Use: State,50193.0000,Sq ft,,Transit: Station,Delhi Metro Rail Corporation,2018-05-29 00:00:00
1000108493,No,Rajouri Garden- Blue Line,"Najafgarh Rd,Shivaji Place,Vishal Enclave,Tagore Garden Extn",New Delhi,Delhi,110018,IN,LEED v4 O+M: Transit,73,Gold,2021-03-31 00:00:00,Yes,Government Use: State,70886.0000,Sq ft,,Transit: Station,Delhi Metro Rail Corporation,2018-05-30 00:00:00
1000108494,No,Ramesh Nagar,Delhi,New Delhi,Delhi,110015,IN,LEED v4 O+M: Transit,69,Gold,2021-03-31 00:00:00,Yes,Government Use: State,13772.0000,Sq ft,,Transit: Station,Delhi Metro Rail Corporation,2018-05-30 00:00:00
1000108504,No,Moti Nagar,Delhi,New Delhi,Delhi,110015,IN,LEED v4 O+M: Transit,66,Gold,2021-03-31 00:00:00,Yes,Government Use: State,18376.0000,Sq ft,,Transit: Station,Delhi Metro Rail Corporation,2018-05-30 00:00:00
1000109140,No,LE TORRI DEL GARDA - Family & SPA Resort,"via Bardino, 7",Torri del Benaco,VR,37010,IT,LEED v4 O+M: HP,59,Silver,2019-05-17 00:00:00,Yes,Corporate: Privately Held,6306.0000,Sq m,,"Lodging: Hotel/Motel/Resort, Full Service",MTM Hotels S.r.l.,2018-06-25 00:00:00
1000109403,No,100 William v4 LEED EB: O+M,100 William Street,New York,NY,10038,US,LEED v4 O+M: EB,51,Silver,2018-11-20 00:00:00,Yes,Corporate: Publicly Traded,480602.0000,Sq ft,, ,John Hancock Real Estate,2018-07-09 00:00:00
1000110419,No,Huntington Place,1 Washington Blvd,Detroit,MI,48226,US,LEED v4.1 O+M: EB,73,Gold,2019-10-04 00:00:00,Yes,Non-Profit (that do not fit into ot,2307166.0000,Sq ft,,Public Assembly: Convention Center,Detroit Regional Convention Facility,2018-08-21 00:00:00
1000111219,No,China World Trade Center Phase III A,No.1 Jian Guo Men Wai Avenue,Beijing,Beijing,100004,CN,LEED v4 O+M: EB,86,Platinum,2019-11-02 00:00:00,Yes,Corporate: Privately Held,278638.0000,Sq m,,Other,China World Trade Center,2018-09-17 00:00:00
1000111828,No,Pepsi Center - WTC,Dakota s/n,Mexico City,DF,03810,MX,LEED v4 O+M: EB,83,Platinum,2020-01-28 00:00:00,Yes,Corporate: Privately Held,155229.1700,Sq ft,,Public Assembly: Entertainment,CIEC-WTC,2018-10-11 00:00:00
1000112191,No,Uniqlo Kawagoe,"252, Ishidayatsushima",Kawagoe,Saitama-ken,350-0837,JP,LEED v4.1 O+M: Interiors,72,Gold,2019-09-27 00:00:00,Yes,Corporate: Publicly Traded,927.0000,Sq m,,Retail: Other Retail,"Uniqlo Co., Ltd.",2018-10-18 00:00:00
1000112816,No,"ITC Grand Goa, Resort & Spa","ITC Grand Goa, Resort & Spa",Cansaulim,Goa,403712,IN,LEED v4 O+M: HP,84,Platinum,2019-10-10 00:00:00,Yes,Corporate: Publicly Traded,429875.0000,Sq ft,,"Lodging: Hotel/Motel/Resort, Full Service",ITC Ltd,2018-11-16 00:00:00
1000112866,No,MIssouri History Museum,5700 Lindell Blvd,Saint Louis,MO,63112,US,LEED v4.1 O+M: EB,59,Silver,2020-12-01 00:00:00,Yes,Non-Profit (that do not fit into ot,130000.0000,Sq ft,,Public Assembly: Social/Meeting,Missouri Historical Society,2018-11-19 00:00:00
1000113562,No,Infosys Pune B9,"Plot No 1, Rajiv Gandhi Infotech Park",Pune,Maharashtra,411057,IN,LEED v4.1 O+M: EB,88,Platinum,2019-08-19 00:00:00,Yes,Corporate: Publicly Traded,40747.0000,Sq ft,,"Lodging: Hotel/Motel/Resort, Limited Service",Infosys Ltd.,2018-12-17 00:00:00
1000113581,No,Infosys Pune B3,"Plot No 1, Rajiv Gandhi Infotech Park",Pune,Maharashtra,411057,IN,LEED v4.1 O+M: EB,88,Platinum,2019-08-19 00:00:00,Yes,Corporate: Publicly Traded,10048.0000,Sq ft,,Retail: Restaurant/Cafeteria,Infosys Ltd.,2018-12-17 00:00:00
1000114434,No,DLF PROMENADE,"3 Nelson Mandela Marg,",New Delhi,Delhi,110070,IN,LEED v4 O+M: Retail,81,Platinum,2019-12-16 00:00:00,Yes,Corporate: Privately Held,464000.0000,Sq ft,,Retail: Enclosed Mall,DLF LIMITED,2019-01-03 00:00:00
1000114443,No,DLF Emporio,4 Nelson Mandela Road,New Delhi,Delhi,110070,IN,LEED v4 O+M: Retail,82,Platinum,2019-12-16 00:00:00,Yes,Corporate: Privately Held,305000.0000,Sq ft,,Retail: Enclosed Mall,DLF LIMITED,2019-01-03 00:00:00
1000114468,No,Infosys Bhubaneswar ECC,"Inofsys Limited, Bhubaneswar STP Unit II, Plot No.E/4, Infoc",Bhubaneswar,Orissa,721024,IN,LEED v4.1 O+M: EB,92,Platinum,2019-08-27 00:00:00,Yes,Corporate: Publicly Traded,9500.0000,Sq m,,"Lodging: Hotel/Motel/Resort, Limited Service",Infosys Ltd.,2019-01-04 00:00:00
1000114552,No,"DLF Mall of India, Noida",Plot No - M 03,Noida,Uttar Pradesh,201301,IN,LEED v4 O+M: Retail,88,Platinum,2019-10-08 00:00:00,Yes,Corporate: Privately Held,1968000.0000,Sq ft,,Retail: Enclosed Mall,DLF LIMITED,2019-01-09 00:00:00
1000114701,No,Library and Research Center,225 South Skinker,Saint Louis,MO,63105,US,LEED v4.1 O+M: EB,55,Silver,2021-02-25 00:00:00,Yes,Non-Profit (that do not fit into ot,104000.0000,Sq ft,,Public Assembly: Library,Missouri Historical Society,2019-01-13 00:00:00
1000114885,No,Hotel Pullman Schweizer Hof,Budapester Str. 25,Berlin,Berlin,10787,DE,LEED v4.1 O+M: EB,66,Gold,2019-10-07 00:00:00,Yes,Investor: Investment Manager,28280.0000,Sq m,,"Lodging: Hotel/Motel/Resort, Full Service",Union Investment Real Estate GmbH,2019-01-25 00:00:00
1000114934,No,Hotel Courtyard by Marriott,Schwanthaler Str. 35,Munich,Bavaria,80336,DE,LEED v4.1 O+M: EB,64,Gold,2019-12-19 00:00:00,Yes,Investor: Investment Manager,12475.0000,Sq m,,"Lodging: Hotel/Motel/Resort, Full Service",Union Investment Real Estate GmbH,2019-01-25 00:00:00
1000115027,No,Infosys Bengaluru B42&43,No 45 & No 46 3rd cross Electronic city Hosur Road,bangalore,Karnataka,560100,IN,LEED v4.1 O+M: EB,87,Platinum,2019-10-05 00:00:00,Yes,Corporate: Publicly Traded,286576.0000,Sq ft,,Lodging: Dormitory,Infosys Ltd.,2019-01-31 00:00:00
1000115029,No,Infosys Bengaluru B18,Plot No.44 Hosur Road,Bengaluru,Karnataka,560100,IN,LEED v4.1 O+M: EB,85,Platinum,2019-10-05 00:00:00,Yes,Corporate: Publicly Traded,52765.0000,Sq ft,,Retail: Restaurant/Cafeteria,Infosys Ltd.,2019-01-31 00:00:00
1000115075,No,Infosys Bengaluru B-8,"Plot No.44, Hosur Road",Bengaluru,Karnataka,560100,IN,LEED v4.1 O+M: EB,88,Platinum,2019-10-05 00:00:00,Yes,Corporate: Publicly Traded,20492.0000,Sq ft,,Retail: Restaurant/Cafeteria,Infosys Ltd.,2019-01-31 00:00:00
1000115111,No,Infosys Bengaluru B47,"No 45 & No 46 3rd cross, Electronic city Hosur Road",Bengaluru,Karnataka,560100,IN,LEED v4.1 O+M: EB,83,Platinum,2019-10-05 00:00:00,Yes,Corporate: Publicly Traded,57001.0000,Sq ft,,Retail: Fast Food,Infosys Ltd.,2019-01-31 00:00:00
1000115133,No,Infosys Bengaluru B27,Plot No.44 Hosur Road,Bengaluru,Karnataka,560100,IN,LEED v4.1 O+M: EB,85,Platinum,2019-10-05 00:00:00,Yes,Corporate: Publicly Traded,7460.0000,Sq ft,,Retail: Restaurant/Cafeteria,Infosys Ltd.,2019-01-31 00:00:00
1000115496,No,Hilton Garden Inn,1821 Boren Avenue,Seattle,WA,98101,US,LEED v4 O+M: HP,64,Gold,2020-07-21 00:00:00,Yes,Investor: Investment Manager,158207.0000,Sq ft,,"Lodging: Hotel/Motel/Resort, Full Service",Union Investment Real Estate GmbH,2019-02-19 00:00:00
1000115594,No,Tanger Fort Worth,15853 North Freeway,Fort Worth,TX,76177,US,LEED v4.1 O+M: EB,65,Gold,2020-07-16 00:00:00,Yes,Corporate: Publicly Traded,351741.0000,Sq ft,,Retail: Open Shopping Center,Tanger Outlet Centers,2019-02-21 00:00:00
1000116407,No,Tanger Phoenix/Glendale,6800 N. 95th Avenue,Glendale,AZ,85305,US,LEED v4.1 O+M: EB,64,Gold,2020-04-02 00:00:00,Yes,Corporate: Publicly Traded,410664.0000,Sq ft,,Retail: Open Shopping Center,Tanger Outlet Centers,2019-03-07 00:00:00
1000116430,No,Tanger Houston,5885 Gulf Freeway,Texas City,TX,77591,US,LEED v4.1 O+M: EB,60,Gold,2020-07-16 00:00:00,Yes,Corporate: Publicly Traded,352705.0000,Sq ft,,Retail: Open Shopping Center,Tanger Outlet Centers,2019-03-07 00:00:00
1000116585,No,Hospital Setiu,Hospital Setiu,Setiu,TRE,22100,MY,LEED v4 O+M: EB,69,Gold,2022-08-02 00:00:00,Yes,"Government Use: Local, City",15272.0000,Sq m,,Healthcare: Inpatient,Kementerian Kesihatan Malaysia,2019-03-13 00:00:00
1000116587,No,Hospital Putrajaya,"Jalan PJ9, Pusat Pentadbiran Kerajaan, Persekutuan Presint 7",Putrajaya,KUL,62250,MY,LEED v4 O+M: EB,81,Platinum,2021-08-06 00:00:00,Yes,"Government Use: Local, City",40575.0000,Sq m,,Healthcare: Inpatient,Kementrian Kesihatan Malaysia,2019-03-14 00:00:00
1000116850,No,Sino-Ocean Taikoo Li Chengdu,"No.8 zhongshameng street, jinjiang district","chengdu city, sichuan province",Sichuan,610011,CN,LEED v4.1 O+M: EB,85,Platinum,2019-12-11 00:00:00,Yes,Corporate: Privately Held,138741.0000,Sq m,,Retail: Open Shopping Center,Chengdu Qianhao Real Estate Company Limi,2019-03-21 00:00:00
1000117086,No,KEB BT D,Kurf³rstendamm 24,Berlin,Berlin,10719,DE,LEED v4 O+M: HP,65,Gold,2020-04-22 00:00:00,Yes,,1027920.1580,Sq m,,"Lodging: Hotel/Motel/Resort, Limited Service", ,2019-03-28 00:00:00
1000117368,No,Tanger Savannah,200 Tanger Outlet Blvd,Pooler,GA,31322,US,LEED v4.1 O+M: EB,63,Gold,2020-07-16 00:00:00,Yes,Corporate: Publicly Traded,429089.0000,Sq ft,,Retail: Open Shopping Center,Tanger Outlet Centers,2019-04-04 00:00:00
1000117386,No,Tanger Charleston,4840 Tanger Outlet Blvd,Charleston,SC,29418,US,LEED v4.1 O+M: EB,61,Gold,2020-07-16 00:00:00,Yes,Corporate: Publicly Traded,382180.0000,Sq ft,,Retail: Open Shopping Center,Tanger Outlet Centers,2019-04-04 00:00:00
1000118404,No,Hanergy Renewable Energy Center,"North Garden of Olympic Forest Park, No. 25 Anli Road, Chaoy",Beijing,Beijing,100107,CN,LEED v4 O+M: EB,94,Platinum,2019-09-25 00:00:00,Yes,Corporate: Privately Held,27395.0000,Sq ft,,Public Assembly: Convention Center,CBRE,2019-04-28 00:00:00
1000118925,No,Tanger Daytona,1100 Cornerstone Blvd,Daytona Beach,FL,32117,US,LEED v4.1 O+M: EB,65,Gold,2020-07-16 00:00:00,Yes,Corporate: Publicly Traded,349402.0000,Sq ft,,Retail: Open Shopping Center,Tanger Outlet Centers,2019-05-01 00:00:00
1000118933,No,Tanger Pittsburgh,2200 Tanger Blvd,Washington,PA,15301,US,LEED v4.1 O+M: EB,65,Gold,2020-07-16 00:00:00,Yes,Corporate: Publicly Traded,372958.0000,Sq ft,,Retail: Open Shopping Center,Tanger Outlet Centers,2019-05-01 00:00:00
1000118944,No,Tanger Columbus,400 South WIlson Road,Sunbury,OH,43074,US,LEED v4.1 O+M: EB,62,Gold,2020-07-16 00:00:00,Yes,Corporate: Publicly Traded,355220.0000,Sq ft,,Retail: Open Shopping Center,Tanger Outlet Centers,2019-05-01 00:00:00
1000119339,No,LIFE HUB at ANTING,"NO.1055 MoYu South Road, Jiading District",Shanghai,Shanghai,201800,CN,LEED v4.1 O+M: EB,77,Gold,2019-10-22 00:00:00,Yes,Corporate: Privately Held,80016.0000,Sq m,,Retail: Enclosed Mall,SH Jia Ting Hui Property Dvpt Co. Ltd.,2019-05-08 00:00:00
1000119406,No,"Hospital Jasin, Malaysia",Jalan Utama,Jasin,MEL,77000,MY,LEED v4 O+M: EB,80,Platinum,2021-05-18 00:00:00,Yes,"Government Use: Other (utility, air",20192.0000,Sq m,,Healthcare: Inpatient,Ministry of Health Malaysia,2019-05-09 00:00:00
1000119657,No,Tanger Grand Rapids,350 84th St SW,Byron Center,MI,49315,US,LEED v4.1 O+M: EB,67,Gold,2020-05-14 00:00:00,Yes,Corporate: Publicly Traded,324827.0000,Sq ft,,Retail: Open Shopping Center,Tanger Outlet Centers,2019-05-20 00:00:00
1000119690,No,Tanger Howell,1475 N Burkhart Road,Howell,MI,48855,US,LEED v4.1 O+M: EB,67,Gold,2020-07-16 00:00:00,Yes,Corporate: Publicly Traded,319889.0000,Sq ft,,Retail: Open Shopping Center,Tanger Outlet Centers,2019-05-20 00:00:00
1000119917,No,MiCo - Milano Convention Centre,Piazzale Carlo Magno 1,Milano,MI,20149,IT,LEED v4 O+M: EB,62,Gold,2021-09-17 00:00:00,Yes,Investor: Investment Manager,81500.0000,Sq m,,Public Assembly: Convention Center,Fiera Milano Congressi S.p.a.,2019-05-28 00:00:00
1000120322,No,Fire Station - Artist in Residence,"Mohammed Bin Thani street & Al Istiqlal street Doha, State o",Doha, ,18108,QA,LEED v4.1 O+M: EB,58,Silver,2020-08-13 00:00:00,Yes,"Government Use: Other (utility, air",9955.4300,Sq m,,Other,Qatar Museums Authority,2019-06-10 00:00:00
1000120327,No,Tanger Foxwoods,455 Trolley Line Boulevard,Mashantucket,CT,06338,US,LEED v4.1 O+M: EB,67,Gold,2020-04-14 00:00:00,Yes,Corporate: Publicly Traded,311644.0000,Sq ft,,Retail: Open Shopping Center,Tanger Outlet Centers,2019-06-10 00:00:00
1000120338,No,Tanger Deer Park,152 The Arches Circle,Deer Park,NY,11729,US,LEED v4.1 O+M: EB,66,Gold,2020-04-17 00:00:00,Yes,Corporate: Publicly Traded,646828.0000,Sq ft,,Retail: Open Shopping Center,Tanger Outlet Centers,2019-06-10 00:00:00
1000120574,No,Prada Alexandra House,Alexandor House No. 16 of Chater Road,Hong Kong,HK,00000,HK,LEED v4.1 O+M: Interiors,67,Gold,2019-06-13 00:00:00,Yes,Corporate: Privately Held,1322.0103,Sq m,,Retail: Other Retail,Prada,2019-06-17 00:00:00
1000121134,No,Condominio Prologis  Cajamar Park II,"Avenida Doutor Antonio Joao Abdalla, 260",Sao Paulo,SP,07760-000,BR,LEED v4.1 O+M: EB,56,Silver,2021-05-12 00:00:00,Yes,"Investor: REIT, Publicly traded",13659.0000,Sq ft,,Other,Prologis,2019-07-12 00:00:00
1000121155,No,Hospital Bintulu,"Jalan Bkt Nyabau, 97000 Bintulu, Sarawak",Bintulu,SAR,97000,MY,LEED v4 O+M: EB,63,Gold,2022-09-01 00:00:00,Yes,Government Use: Federal,18879.0000,Sq m,,Healthcare: Inpatient,Ministry of Health Malaysia,2019-07-16 00:00:00
1000121372,No,Hospital Wanita & Kanak-Kanak Sabah,"Hospital Wanita & Kanak-Kanak Sabah, P.O.Box 187,",Kota Kinabalu,SAB,88996,MY,LEED v4 O+M: EB,61,Gold,2022-09-02 00:00:00,Yes,Government Use: Federal,52329.0000,Sq m,,Healthcare: Clinic/Other Outpatient,Ministry of Health Malaysia,2019-07-22 00:00:00
1000121426,No,The Porter Portland,1355 SW 2nd Ave,Portland,OR,97201,US,LEED v4.1 O+M: EB,58,Silver,2021-03-16 00:00:00,Yes,Investor: Bank,202340.0000,Sq ft,,"Lodging: Hotel/Motel/Resort, Full Service",Union Investment Real Estate GmbH,2019-07-24 00:00:00
1000121725,No,Japan House SP,"Av. Paulista, 52 Bela Vista",Sao Paulo,SP,01310-000,BR,LEED v4.1 O+M: EB,80,Platinum,2020-04-01 00:00:00,Yes,Non-Profit (that do not fit into other c,1975.0000,Sq m,,Public Assembly: Museum,ASSOCIACAO JAPAN HOUSE,2019-08-01 00:00:00
1000121833,No,The Children's Museum of Cleveland,3813 Euclid Avenue,Cleveland,OH,44115,US,LEED v4.1 O+M: EB,81,Platinum,2019-10-04 00:00:00,Yes,Non-Profit (that do not fit into ot,51968.0000,Sq ft,,Public Assembly: Other Assembly,Children's Museum of Cleveland,2019-08-06 00:00:00
1000121870,No,Yorkdale Shopping Centre,3401 Dufferin Street,Toronto,ON,M6E 2S7,CA,LEED v4.1 O+M: EB,61,Gold,2022-09-07 00:00:00,Yes,Corporate: Privately Held,2701461.0000,Sq ft,,Retail: Enclosed Mall,Oxford Properties Group,2019-08-07 00:00:00
1000122263,No,Rongxin Technology Center Building H,"Wangjing, Chaoyang district, Beijing",Beijing,Beijing,100020,CN,LEED v4.1 O+M: EB,85,Platinum,2020-05-01 00:00:00,Yes,"Educational: College, Private",4178.0000,Sq m,,Retail: Enclosed Mall,CBRE,2019-08-21 00:00:00
1000122271,No,Rongxin Technology Center Building G,"Wangjing, Chaoyang district, Beijing",Beijing,Beijing,100020,CN,LEED v4.1 O+M: EB,86,Platinum,2020-05-01 00:00:00,Yes,Corporate: Publicly Traded,4786.0700,Sq m,,Retail: Enclosed Mall,CBRE,2019-08-21 00:00:00
1000122789,No,SGIA TERMINAL BUILDING,Sanayi Mah. Havaalani Ic Yolu Cad. No:1,Istanbul,Istanbul,34906,TR,LEED v4 O+M: EB,66,Gold,2019-12-11 00:00:00,Yes,Corporate: Privately Held,220000.0000,Sq m,,Airport: Terminal/Concourse,ISG Yatirim Yapim ve Isletme A.S.,2019-08-26 00:00:00
1000123032,No,CARGILL Miritituba,"Margem Direita do Rio Tapajos, s/n",Itaituba,PA,68191-400,BR,LEED v4 O+M: EB,41,Certified,2020-09-14 00:00:00,Yes,Corporate: Privately Held,6000.0000,Sq m,,Other,Cargill,2019-08-30 00:00:00
1000124080,No,HOSPITAL SLIM RIVER,Hospital Slim River,Slim River,PER,35800,MY,LEED v4 O+M: EB,82,Platinum,2022-07-20 00:00:00,Yes,Government Use: State,48769.0000,Sq m,,Healthcare: Inpatient,Ministry of Health Malaysia,2019-09-24 00:00:00
1000124555,No,Hotel MiM Ibiza,"Carrer de Carles Roman Ferrer, 8",Ibiza,Baleares,07800,ES,LEED v4 O+M: HP,72,Gold,2020-11-17 00:00:00,Yes,Investor: Individual/Family,2286.0000,Sq m,,"Lodging: Hotel/Motel/Resort, Full Service",Edificio Rostower SLU,2019-10-09 00:00:00
1000124559,No,Gilead B333,333 Lakeside Drive,Foster City,CA,94404,US,LEED v4 O+M: EB,56,Silver,2020-11-05 00:00:00,Yes,Corporate: Publicly Traded,38836.0000,Sq ft,,Public Assembly: Social/Meeting,"Gilead Sciences, Inc.",2019-10-10 00:00:00
1000124607,No,Kamp Galleria,Pohjoisesplanadi 29,Helsinki,Etelõ-Suomi,00101,FI,LEED v4.1 O+M: EB,74,Gold,2020-05-29 00:00:00,Yes,Investor: Pension Fund,7830.0000,Sq m,,Retail: Enclosed Mall,Ilmarinen Mutual Pension Insurance Comp.,2019-10-11 00:00:00
1000126042,No,GKNM Hospital,"Relief, N0. 88 , Post Box No.6327, GKNM Hospital Campus, Net",Coimbatore,Tamil Nadu,641037,IN,LEED v4.1 O+M: EB,85,Platinum,2022-06-06 00:00:00,Yes,Corporate: Privately Held,395981.0000,Sq ft,,Healthcare: Inpatient,G. Kuppuswamy Naidu Memorial Hospital,2019-11-13 00:00:00
1000126205,No,Museum of Islamic Art,"C-Ring Road at Al Mana Intersection, Doha, State of Qatar",Doha, ,18108,QA,LEED v4.1 O+M: EB,56,Silver,2021-09-27 00:00:00,Yes,"Government Use: Other (utility, airport,",42062.0000,Sq m,,Public Assembly: Museum,Qatar Museums Authority,2019-11-28 00:00:00
1000126389,No,Aleksanterinkatu 40-42,Aleksanterinkatu 40-42,Helsinki,Etelõ-Suomi,00100,FI,LEED v4.1 O+M: EB,69,Gold,2020-06-30 00:00:00,Yes,Investor: Pension Fund,21156.0000,Sq m,,"Lodging: Hotel/Motel/Resort, Full Service",Ilmarinen Mutual Pension Insurance Comp.,2019-12-03 00:00:00
1000126410,No,Orion Mall at Brigade Gateway,"Orion Property Management Services Ltd, #26/1 Dr. Rajkumar R",Bengaluru,Karnataka,560055,IN,LEED v4.1 O+M: EB,70,Gold,2020-09-16 00:00:00,Yes,Corporate: Privately Held,625230.0000,Sq ft,,Retail: Enclosed Mall,Brigade Group,2019-12-03 00:00:00
1000127266,No,Prada Shanghai Florentia Village Outlet,"NO. 58, Zhuoyao Road, Pudong New District Florentia Village",Shanghai,Shanghai,200120,CN,LEED v4.1 O+M: Interiors,71,Gold,2022-01-18 00:00:00,Yes,Corporate: Privately Held,733.4000,Sq m,,Retail: Other Retail,Prada,2020-01-05 00:00:00
1000127311,No,Gelal Socks Social Facility,Sabanozu Organize Sanayi Bolgesi,Cankiri,Cankiri,18650,TR,LEED v4.1 O+M: EB,88,Platinum,2021-08-18 00:00:00,Yes,Investor: Investment Manager,2238.0000,Sq m,,Other,GELAL CORAP,2020-01-07 00:00:00
1000128078,No,Ottawa Station,200 Tremblay Road,Ottawa,ON,K1G 3H5,CA,LEED v4.1 O+M: EB,68,Gold,2020-08-10 00:00:00,Yes,Government Use: Federal,6796.0000,Sq m,,Transit: Station,VIA Rail Canada,2020-01-22 00:00:00
1000128092,No,Winnipeg Station,123 Main Street,Winnipeg,MB,R3C 1A3,CA,LEED v4.1 O+M: EB,65,Gold,2022-04-05 00:00:00,Yes,Government Use: Federal,248502.0000,Sq ft,,Transit: Station,VIA Rail Canada,2020-01-22 00:00:00
1000128644,No,Hotel Kamp,Pohjoisesplanadi 29,Helsinki,Etelõ-Suomi,00100,FI,LEED v4.1 O+M: EB,69,Gold,2021-03-16 00:00:00,Yes,Investor: Pension Fund,18523.0000,Sq m,,"Lodging: Hotel/Motel/Resort, Full Service",Ilmarinen Mutual Pension Insurance Comp.,2020-02-06 00:00:00
1000128690,No,LIFE HUB at KUNSHAN,"No.1188#NO.1168 People south Road, KunShan",Kunshan,Jiangsu,215300,CN,LEED v4.1 O+M: EB,85,Platinum,2020-09-23 00:00:00,Yes,Corporate: Privately Held,123308.0000,Sq m,,Retail: Enclosed Mall,"Kunshan Lu Fang Development Co., Ltd.",2020-02-07 00:00:00
1000128746,No,LIFE HUB at JINQIAO,"Lane 3611, Zhangyang Road, Pudong New Area",Shanghai,Shanghai,200000,CN,LEED v4.1 O+M: EB,67,Gold,2020-09-23 00:00:00,Yes,Corporate: Privately Held,114732.0000,Sq m,,Retail: Enclosed Mall,"Shanghai Edmonton Real Estate Co,Ltd.",2020-02-11 00:00:00
1000128749,No,LIFE HUB at DANING,No.1868 & 1968 Gonghexin Road,Shanghai,Shanghai,200000,CN,LEED v4.1 O+M: EB,73,Gold,2020-09-23 00:00:00,Yes,Corporate: Privately Held,103410.0000,Sq m,,Retail: Enclosed Mall,Shanghai Forrester (zhabei) Development,2020-02-11 00:00:00
1000129014,No,LIFE HUB at YUHANG,"No.501 Yinbin Road, Yuhang District",Hangzhou,Zhejiang,310000,CN,LEED v4.1 O+M: EB,82,Platinum,2020-09-23 00:00:00,Yes,Corporate: Privately Held,168613.0000,Sq m,,Retail: Enclosed Mall,"HZ Gaoqing Property Co., Ltd.",2020-02-17 00:00:00
1000129699,No,"The Bengal Rowing Club, Kolkata","13/2, Baroj Road, Rabindra Sarobar",Kolkata,West Bengal,700029,IN,LEED v4.1 O+M: EB,84,Platinum,2022-01-11 00:00:00,Yes,Non-Profit (that do not fit into other c,49492.0000,Sq m,,Public Assembly: Recreation,The Bengal Rowing Club,2020-03-11 00:00:00
1000130393,No,Uniqlo Takajo,"6-8, Takajo-Honmachi",Oita-city,Oita-ken,870-0157,JP,LEED v4.1 O+M: Interiors,67,Gold,2020-10-26 00:00:00,Yes,Corporate: Publicly Traded,928.0000,Sq m,,Retail: Other Retail,"Uniqlo Co., Ltd.",2020-04-05 00:00:00
1000130411,No,Uniqlo Tottori-Chiyomi,"226-4, Yasunaga",Tottori-city,Tottori-ken,680-0913,JP,LEED v4.1 O+M: Interiors,66,Gold,2020-11-18 00:00:00,Yes,Corporate: Publicly Traded,1887.0000,Sq m,,Retail: Other Retail,"Uniqlo Co., Ltd.",2020-04-05 00:00:00
1000130417,No,Uniqlo ABLO-Uruma,"8-1, Toyohara",Uruma-city,Okinawa-ken,904-2233,JP,LEED v4.1 O+M: Interiors,65,Gold,2020-11-11 00:00:00,Yes,Corporate: Publicly Traded,1174.0000,Sq m,,Retail: Other Retail,"Uniqlo Co., Ltd.",2020-04-05 00:00:00
1000130677,No,Aloft Hotel City Centre Deira,Aloft Hotel City Centre Deira,DUBAI,AE,00000,AE,LEED v4.1 O+M: EB,87,Platinum,2021-01-06 00:00:00,Yes,Business Improvement District,310000.3200,Sq ft,,"Lodging: Hotel/Motel/Resort, Full Service",MAJID AL FUTTAIM PROPERTIES LLC,2020-04-16 00:00:00
1000130696,No,IBIS AND SUITE NOVOTEL MALL OF EMIRATES,"P O BOX 283825, DUBAI, UAE",DUBAI,AE,283825,AE,LEED v4.1 O+M: EB,88,Platinum,2021-01-15 00:00:00,Yes,Corporate: Privately Held,350450.0000,Sq ft,,"Lodging: Hotel/Motel/Resort, Full Service",MAJID AL FUTTAIM PROPERTIES LLC,2020-04-17 00:00:00
1000130704,No,Kempinski Mall Of Emirates,Kempinski Mall of Emirates,Dubai,AE,00000,AE,LEED v4.1 O+M: EB,81,Platinum,2021-01-05 00:00:00,Yes,Business Improvement District,616503.0000,Sq ft,,"Lodging: Hotel/Motel/Resort, Full Service",MAJID AL FUTTAIM PROPERTIES LLC,2020-04-17 00:00:00
1000130707,No,WESTIN HOTEL BAHRAIN CITY CENTRE,"P O BOX 5010, MANAMA , KINGDOM OF BAHRAI",MANAMA, ,5010,BH,LEED v4.1 O+M: EB,83,Platinum,2021-01-21 00:00:00,Yes,Corporate: Privately Held,296018.3000,Sq ft,,"Lodging: Hotel/Motel/Resort, Full Service",MAJID AL FUTTAIM PROPERTIES LLC,2020-04-17 00:00:00
1000130709,No,LE MERIDIAN HOTEL BAHRAIN CITY CENTRE,"P O BOX 5010, MANAMA . KINGDOM OF BAHRAI",MANAMA, ,5010,BH,LEED v4.1 O+M: EB,85,Platinum,2021-01-21 00:00:00,Yes,Corporate: Privately Held,202543.0000,Sq ft,,"Lodging: Hotel/Motel/Resort, Full Service",MAJID AL FUTTAIM PROPERTIES LLC,2020-04-17 00:00:00
1000130718,No,PULLMAN CITY CENTRE DIERA DUBAI HOTEL,P O BOX 61871,DUBAI,AE,61871,AE,LEED v4.1 O+M: EB,80,Platinum,2020-12-03 00:00:00,Yes,Corporate: Privately Held,430126.0000,Sq ft,,"Lodging: Hotel/Motel/Resort, Full Service",MAJID AL FUTTAIM PROPERTIES LLC,2020-04-17 00:00:00
1000130726,No,SHERATON MALL OF THE EMIRATES DUBAI,"P O BOX 450309, DUBAI, UAE",DUBAI,AE,450309,AE,LEED v4.1 O+M: EB,86,Platinum,2021-01-12 00:00:00,Yes,Business Improvement District,534439.0000,Sq ft,,"Lodging: Hotel/Motel/Resort, Full Service",MAJID AL FUTTAIM PROPERTIES LLC,2020-04-17 00:00:00
1000130729,No,IBIS AL RIGGA DUBAI,"P O BOX 186878 , DUBAI, UAE",DUBAI,AE,186878,AE,LEED v4.1 O+M: EB,82,Platinum,2021-01-21 00:00:00,Yes,Corporate: Privately Held,130910.0000,Sq ft,,"Lodging: Hotel/Motel/Resort, Full Service",MAJID AL FUTTAIM PROPERTIES LLC,2020-04-17 00:00:00
1000130730,No,MOE Hilton Garden Inn,"Al Barsha,",DUBAI,AE,00000,AE,LEED v4.1 O+M: EB,81,Platinum,2021-01-05 00:00:00,Yes,Corporate: Privately Held,262661.0000,Sq ft,,"Lodging: Hotel/Motel/Resort, Full Service",MAJID AL FUTTAIM PROPERTIES LLC,2020-04-17 00:00:00
1000130732,No,NOVOTEL & IBIS  CITY CENTRE DEIRA DUBAI,"P O BOX 185310, DUBAI, UAE",DUBAI,AE,185310,AE,LEED v4.1 O+M: EB,88,Platinum,2020-11-25 00:00:00,Yes,Corporate: Privately Held,350935.2500,Sq ft,,"Lodging: Hotel/Motel/Resort, Full Service",MAJID AL FUTTAIM PROPERTIES LLC,2020-04-17 00:00:00
1000130851,No,Uniqlo Iwakitaira,"3-8-8, Tairayagawase",Iwaki-city,Fukushima-ken,970-8036,JP,LEED v4.1 O+M: Interiors,67,Gold,2020-10-22 00:00:00,Yes,Corporate: Publicly Traded,1878.0000,Sq m,,Retail: Other Retail,"Uniqlo Co., Ltd.",2020-04-22 00:00:00
1000130861,No,Uniqlo Sapporo-Naebo,"1-2-3-30, Higashi-Naebo",Higashi-ku,Hokkaido,007-0801,JP,LEED v4.1 O+M: Interiors,64,Gold,2020-12-22 00:00:00,Yes,Corporate: Publicly Traded,1882.0000,Sq m,,Retail: Other Retail,"Uniqlo Co., Ltd.",2020-04-22 00:00:00
1000131783,No,Uniqlo Nagahama Kaze No Machi,"526, Yawata-Nakayama",Nagahama,Shiga-ken,526-0021,JP,LEED v4.1 O+M: Interiors,67,Gold,2020-11-11 00:00:00,Yes,Corporate: Publicly Traded,924.0000,Sq m,,Retail: Other Retail,"Uniqlo Co., Ltd.",2020-05-29 00:00:00
1000131814,No,CBC Toronto Broadcast Centre,250 Front St. W.,Toronto,ON,M5V 3G5,CA,LEED v4.1 O+M: EB,67,Gold,2022-01-12 00:00:00,Yes,Government Use: Federal,1975109.0000,Sq ft,,Other,Canadian Broadcasting Corporation,2020-06-01 00:00:00
1000132714,No,Chengdu IFS - Retail and Office Tower1,"Chengdu IFS, No.1 Section 3 Hongxing Roa",Chengdu,Sichuan,610021,CN,LEED v4.1 O+M: EB,81,Platinum,2020-11-20 00:00:00,Yes,Corporate: Privately Held,329479.0000,Sq m,,Retail: Enclosed Mall,"Long Jin Development (Chengdu) Co., Ltd.",2020-06-29 00:00:00
1000132995,No,Starbucks Alondra & Paramount,7905 Alondra Boulevard,Paramount,CA,90723,US,LEED v4.1 O+M: EB,60,Gold,2021-06-08 00:00:00,Yes,Corporate: Publicly Traded,2553.0000,Sq ft,,Retail: Fast Food,Starbucks Coffee Company,2020-07-09 00:00:00
1000133396,No,Delvaux K11,"18 Salisbury road, Tsim Sha Tsui 018B, 018C, G/F",Hong Kong,HK,000000,HK,LEED v4.1 O+M: Interiors,63,Gold,2021-01-14 00:00:00,Yes,Corporate: Publicly Traded,225.0000,Sq m,,Retail: Enclosed Mall,Delvaux,2020-07-28 00:00:00
1000134002,No,Chaoyang Hopson One,Southeast near the intersection of xidaw Chaoyang District,Beijing,Beijing,100000,CN,LEED v4.1 O+M: EB,82,Platinum,2021-02-09 00:00:00,Yes,Corporate: Privately Held,187534.0000,Sq m,,Retail: Enclosed Mall,"Beijing Heshengyujing Real Estate Co., L",2020-08-21 00:00:00
1000134484,No,New Orleans Ernest N. Morial Convention,900 Convention Center Blvd,New Orleans,LA,70130,US,LEED v4.1 O+M: EB,67,Gold,2022-10-04 00:00:00,Yes,Government Use: State,3080864.0000,Sq ft,,Public Assembly: Social/Meeting,Louisiana,2020-09-09 00:00:00
1000138882,No,Penetron Products Pvt Ltd,"111/2A, Kapparathampatti, Chinnapampatti Main Road,",Salem,Tamil Nadu,636501,IN,LEED v4.1 O+M: EB,85,Platinum,2021-07-14 00:00:00,Yes,Corporate: Privately Held,2818.0000,Sq m,,Other,Penetron Products Pvt Ltd,2020-12-14 00:00:00
1000139208,No,SKP BEIJING,No. 87 Jianguo Road Chaoyang District,Beijing,Beijing,100000,CN,LEED v4.1 O+M: EB,82,Platinum,2021-04-05 00:00:00,Yes,Corporate: Privately Held,123091.0000,Sq m,,Retail: Enclosed Mall,Beijing Hualian (SKP) Department Store C,2020-12-24 00:00:00
1000139484,No,SKP-S BEIJING,No. 86 Jianguo Road Chaoyang District,Beijing,Beijing,100000,CN,LEED v4.1 O+M: EB,83,Platinum,2021-04-08 00:00:00,Yes,Corporate: Privately Held,30653.0000,Sq m,,Retail: Enclosed Mall,Beijing Hualian Fashion Department Store,2020-12-30 00:00:00
1000139637,No,Pinnacles Store,2400 Highway 146,Paicines,CA,95043,US,LEED v4 O+M: Retail,58,Silver,2022-03-07 00:00:00,Yes,Corporate: Privately Held,1176.0000,Sq ft,,Retail: Convenience Store,Pinnacles Recreation Company,2021-01-07 00:00:00
1000140018,No,Inom Vallgraven 8:18 Kompassen,Kungsgatan 58-60 / Kompassen / Kyrkogata,Gothenburg,Võstra G÷talands Lõn,411 08,SE,LEED v4.1 O+M: EB,63,Gold,2022-08-17 00:00:00,Yes,Corporate: Privately Held,13726.0000,Sq m,,Retail: Other Retail,Vasakronan,2021-01-21 00:00:00
1000140021,No,Dragarbrunn 18:9 Fenixhuset,Gamla Torget 7,Uppsala,Uppsala Lõn,753 22,SE,LEED v4.1 O+M: EB,69,Gold,2022-08-15 00:00:00,Yes,Corporate: Privately Held,5905.0000,Sq m,,Retail: Other Retail,Vasakronan,2021-01-21 00:00:00
1000140922,No,Upper Zeil Frankfurt,Zeil 112-114,Frankfurt,Hesse,60313,DE,LEED v4.1 O+M: EB,65,Gold,2021-05-27 00:00:00,Yes,Corporate: Privately Held,19059.0000,Sq m,,Retail: Other Retail,SIGNA Real Estate Management Germany Gmb,2021-02-09 00:00:00
1000141204,No,DOW CENTER BAHIA,RODRIGUEZ 4985,BAHIA BLANCA,Buenos Aires,B8000OOO,AR,LEED v4 O+M: EB,49,Certified,2022-01-10 00:00:00,Yes,Corporate: Privately Held,7000.0000,Sq m,,Public Assembly: Stadium/Arena,ORIGINAL SPORTS SRL,2021-02-19 00:00:00
1000141629,No,Aeropuerto El Dorado,Ac. 26 # 103-9,Bogota,BOGOTA,110911,CO,LEED v4.1 O+M: EB,82,Platinum,2021-07-09 00:00:00,Yes,Corporate: Privately Held,236757.7900,Sq m,,Airport: Terminal/Concourse,OPAIN S.A.,2021-03-02 00:00:00
1000141814,No,DLF Avenue Mall,Plot No- A 4,New Delhi - 110017,Delhi,110017,IN,LEED v4 O+M: Retail,81,Platinum,2021-08-31 00:00:00,Yes,Corporate: Privately Held,44836.0000,Sq m,,Retail: Enclosed Mall,DLF LIMITED,2021-03-08 00:00:00
1000141815,No,The Chanakya,Yashwant Place Commercial Complex Chanakyapuri,New Delhi- 110021,Delhi,110021,IN,LEED v4 O+M: Retail,80,Platinum,2021-08-31 00:00:00,Yes,Corporate: Privately Held,86951.0000,Sq ft,,Retail: Enclosed Mall,DLF LIMITED,2021-03-08 00:00:00
1000142672,No,Pacific Mall,Tagore Garden Najafgarh Road,New Delhi,Delhi,110018,IN,LEED v4.1 O+M: EB,86,Platinum,2022-11-09 00:00:00,Yes,Corporate: Privately Held,581685.0000,Sq ft,,Retail: Enclosed Mall,Pacific Mall,2021-03-24 00:00:00
1000142773,No,Hotel MiM Baqueira,"Carrer Perimetrau, s/n",Baqueira,Lerida,25598,ES,LEED v4 O+M: HP,56,Silver,2022-07-12 00:00:00,Yes,Investor: Individual/Family,7980.0000,Sq m,,"Lodging: Hotel/Motel/Resort, Full Service",Edificio Rostower SLU,2021-03-26 00:00:00
1000142939,No,Sakip Sabanci Museum,Emirgan,Istanbul,Istanbul,34467,TR,LEED v4 O+M: EB,63,Gold,2022-05-06 00:00:00,Yes,Corporate: Privately Held,9000.0000,Sq m,,Public Assembly: Museum,Sabanci University,2021-04-01 00:00:00
1000143017,No,WE1212 Hotel Intercontinental Berlin,Budapester Stra?e 2,Berlin,Berlin,10787,DE,LEED v4.1 O+M: EB,61,Gold,2023-01-16 00:00:00,Yes,Investor: Investment Manager,64685.0000,Sq m,,"Lodging: Hotel/Motel/Resort, Full Service",Union Investment Real Estate GmbH,2021-04-06 00:00:00
1000143357,No,SHANGHAI NANXIANG INCITY MEGA,"No.2299 Chenxiang Highway, Nanxiang Town",Shanghai,Shanghai,201802,CN,LEED v4.1 O+M: EB,87,Platinum,2021-11-03 00:00:00,Yes,Corporate: Privately Held,189058.0000,Sq m,,Retail: Open Shopping Center,SCPG,2021-04-16 00:00:00
1000143728,No,LIFE HUB at UPBUND,"No. 917, Zhoujiazui Road",Shanghai,Shanghai,200086,CN,LEED v4.1 O+M: EB,82,Platinum,2021-08-22 00:00:00,Yes,Corporate: Privately Held,61481.0000,Sq m,,Retail: Other Retail,Shanghai JMK Development Limited,2021-04-27 00:00:00
1000143805,No,Handelsmannen 6,K÷pmangatan 24,Ostersund,Jõmtlands Lõn,831 30,SE,LEED v4.1 O+M: EB,67,Gold,2022-03-22 00:00:00,Yes,Corporate: Publicly Traded,7358.0000,Sq m,,Healthcare: Clinic/Other Outpatient,Kungsleden AB,2021-04-30 00:00:00
1000143982,No,BaseCamp Potsdam,Kossõtenweg 25,Potsdam,Brandenburg,14476,DE,LEED v4.1 O+M: EB,70,Gold,2022-03-25 00:00:00,Yes,Corporate: Privately Held,10131.0000,Sq m,,Lodging: Dormitory,ST. POTSDAM S.a.r.l,2021-05-04 00:00:00
1000143991,No,BaseCamp Leipzig,Prager Str. 53,Leipzig,Saxony,04317,DE,LEED v4.1 O+M: EB,68,Gold,2022-03-29 00:00:00,Yes,"Investor: REIT, Publicly traded",15818.0000,Sq m,,Lodging: Other lodging,ST. POTSDAM S.a.r.l,2021-05-04 00:00:00
1000144798,No,HCL Bangalore - Cafeteria,"SEZ 129, Tower 2 Jigani Bommasandra Jigani Link Road, Indust",Bengaluru 560105,Karnataka,560105,IN,LEED v4.1 O+M: EB,85,Platinum,2022-06-10 00:00:00,Yes,Corporate: Privately Held,56274.0000,Sq ft,,Retail: Restaurant/Cafeteria,HCL Technologies Ltd,2021-05-25 00:00:00
1000144804,No,O'South Coast - Monterey Place,23 Tong Chun Street,Tseung Kwan O,NT,00000,HK,LEED v4.1 O+M: EB,66,Gold,2022-04-21 00:00:00,Yes,"Investor: REIT,Non-traded",13709.0000,Sq m,,Retail: Enclosed Mall,SINOWIDE HOLDINGS LIMITED,2021-05-25 00:00:00
1000144810,No,HCL Chennai - Cafe,"SEZ CO-DEVELOPER, ELCOT, 602/3, 138, SHO TAMBARAM TALUK",Chennai,Tamil Nadu,600115,IN,LEED v4.1 O+M: EB,86,Platinum,2022-06-18 00:00:00,Yes,Corporate: Privately Held,191333.0000,Sq ft,,Retail: Restaurant/Cafeteria,HCL Technologies Ltd,2021-05-25 00:00:00
1000144820,No,O'South Coast - Savannah Place,3 Chi Shin Street,Tseung Kwan O,NT,00000,HK,LEED v4.1 O+M: EB,69,Gold,2022-04-21 00:00:00,Yes,"Investor: REIT,Non-traded",6954.0000,Sq m,,Retail: Enclosed Mall,SUNCO (H.K.) LIMITED,2021-05-25 00:00:00
1000144822,No,Kauppakeskus Duo,Pietilõnkatu 2,Tampere,Lõnsi-Suomi,33720,FI,LEED v4.1 O+M: EB,75,Gold,2021-11-08 00:00:00,Yes,Investor: Equity Fund,20202.5000,Sq m,,Retail: Enclosed Mall,NREP Oy,2021-05-25 00:00:00
1000144827,No,Hyatt House/Hyatt Place Historic Charles,560 King St.,Charleston,SC,29403,US,LEED v4.1 O+M: EB,62,Gold,2022-11-01 00:00:00,Yes,Business Improvement District,241941.0000,Sq ft,,"Lodging: Hotel/Motel/Resort, Full Service",Union Investment Real Estate GmbH,2021-05-25 00:00:00
1000144863,No,O'South Coast - Capri Place,33 Tong Yin Street,Tseung Kwan O,NT,00000,HK,LEED v4.1 O+M: EB,76,Gold,2022-04-21 00:00:00,Yes,"Investor: REIT,Non-traded",7984.0000,Sq m,,Retail: Enclosed Mall,GAINCO ENTERPRISES LIMITED,2021-05-25 00:00:00
1000144893,No,HCL Noida - Cafe 2,"SEZ Developer, Plot No 3A, Sector-126 Gautam Budha Nagar",Noida,Uttar Pradesh,201304,IN,LEED v4.1 O+M: EB,86,Platinum,2022-04-04 00:00:00,Yes,Corporate: Privately Held,50209.0000,Sq ft,,Retail: Restaurant/Cafeteria,HCL Technologies Ltd,2021-05-26 00:00:00
1000144901,No,HCL Noida - Cafe 1,"SEZ Developer, Plot No 3A, Sector-126 Gautam Budha Nagar",Noida,Uttar Pradesh,201304,IN,LEED v4.1 O+M: EB,89,Platinum,2022-04-01 00:00:00,Yes,Corporate: Privately Held,89718.0000,Sq ft,,Retail: Restaurant/Cafeteria,HCL Technologies Ltd,2021-05-26 00:00:00
1000144903,No,HCL Noida - Cafe 3,"SEZ Developer, Plot No 3A, Sector-126 Gautam Budha Nagar",Noida,Uttar Pradesh,201304,IN,LEED v4.1 O+M: EB,90,Platinum,2022-04-07 00:00:00,Yes,Corporate: Privately Held,206367.0000,Sq ft,,Retail: Restaurant/Cafeteria,HCL Technologies Ltd,2021-05-26 00:00:00
1000144945,No,Shopping Center Campo dei Fiori Gavirate,"Viale Ticino, 82",Gavirate,VA,21026,IT,LEED v4.1 O+M: EB,68,Gold,2021-10-01 00:00:00,Yes,Investor: Investment Manager,21350.0000,Sq m,,Retail: Enclosed Mall,CBRE Global Investors,2021-05-27 00:00:00
1000145601,No,Uniqlo Park,"6-5 Shiraho, Kanazawa",Yokohama,Kanagawa-ken,236-0007,JP,LEED v4.1 O+M: EB,67,Gold,2021-07-27 00:00:00,Yes,Corporate: Publicly Traded,5670.0000,Sq m,,Retail: Other Retail,"Uniqlo Co., Ltd.",2021-06-19 00:00:00
1000145676,No,Dalingshan Logistics Park-Dormitory,"No.34 Lianhuan Road, Dalingshan Town",Dongguan,Guangdong,523000,CN,LEED v4.1 O+M: EB,81,Platinum,2021-09-12 00:00:00,Yes,Corporate: Privately Held,2994.0000,Sq m,,Lodging: Dormitory,"Shanghai DragonCor Logistics Co., Ltd",2021-06-22 00:00:00
1000146813,No,Taikoo Hui Guangzhou Mall,"TaiKoo Hui Tower 2, 383 Tianhe Road",Guangzhou,Guangdong,510620,CN,LEED v4 O+M: Retail,89,Platinum,2022-02-15 00:00:00,Yes,Corporate: Publicly Traded,172041.0000,Sq m,,Retail: Enclosed Mall,Taikoo Hui (Guangzhou) Development Compa,2021-07-15 00:00:00
1000146929,No,Galeria Berlin Alexanderplatz,Alexanderplatz 9,Berlin,Berlin,10178,DE,LEED v4.1 O+M: EB,61,Gold,2022-08-12 00:00:00,Yes,Corporate: Privately Held,70841.0000,Sq m,,Retail: Other Retail,"Berlin, Alexanderplatz 9 Immobilien GmbH",2021-07-19 00:00:00
1000147238,No,PRIUS PLATINUM,"D3, P3B, Saket District Centre District centre, Sector 6, Sa",New Delhi,Delhi,110017,IN,LEED v4.1 O+M: EB,69,Gold,2022-01-20 00:00:00,Yes,Corporate: Privately Held,257000.0000,Sq ft,,Public Assembly: Convention Center,Kotak Funds,2021-07-29 00:00:00
1000147555,No,Hotel Iberostar Selection Playa Mita,"Comercial Camino Ingreso a Litib·, Lote",Riviera Nayarit,NAY,63734,MX,LEED v4.1 O+M: EB,71,Gold,2022-04-21 00:00:00,Yes,Corporate: Privately Held,61736.0000,Sq m,,"Lodging: Hotel/Motel/Resort, Full Service",Iberostar Hotel & Resort,2021-08-04 00:00:00
1000147981,No,Yuedi My Place,No. 186 Tongjiang Avenue Nan'an District,Chongqing,Chongqing,401336,CN,LEED v4.1 O+M: EB,84,Platinum,2022-01-29 00:00:00,Yes,Corporate: Privately Held,64750.0000,Sq m,,Retail: Other Retail,Chongqing Xinchuang Shopping Mall Manage,2021-08-17 00:00:00
1000148022,No,Tanger Mebane,4000 Arrowhead Boulevard,Mebane,NC,27302,US,LEED v4.1 O+M: EB,63,Gold,2022-11-01 00:00:00,Yes,"Investor: REIT, Publicly traded",318910.0000,Sq ft,,Retail: Open Shopping Center,Tanger Outlet Centers,2021-08-18 00:00:00
1000148045,No,Tanger Locust Grove,1000 Tanger Drive,Locust Grove,GA,30248,US,LEED v4.1 O+M: EB,64,Gold,2022-10-11 00:00:00,Yes,"Investor: REIT, Publicly traded",321070.0000,Sq ft,,Retail: Open Shopping Center,Tanger Outlet Centers,2021-08-18 00:00:00
1000148052,No,Tanger National Harbor,6800 Oxon Hill Road,National Harbor,MD,20745,US,LEED v4.1 O+M: EB,64,Gold,2022-10-10 00:00:00,Yes,"Investor: REIT, Publicly traded",338786.0000,Sq ft,,Retail: Open Shopping Center,Tanger Outlet Centers,2021-08-18 00:00:00
1000148054,No,Tanger Riverhead,200 Tanger Mall Drive,Riverhead,NY,11901,US,LEED v4.1 O+M: EB,62,Gold,2022-11-10 00:00:00,Yes,"Investor: REIT, Publicly traded",729734.0000,Sq ft,,Retail: Open Shopping Center,Tanger Outlet Centers,2021-08-18 00:00:00
1000148582,No,ChangAn Tower,"No.10, East Changan Avenue, Dongcheng District",Beijing,Beijing,100006,CN,LEED v4.1 O+M: EB,74,Gold,2022-02-24 00:00:00,Yes,Corporate: Privately Held,263749.0000,Sq ft,,Other,Beijing Fu Wah Hong Property Management,2021-09-01 00:00:00
1000148676,No,Miu Miu Padova Via San Fermo,Via San Fermo 16,Padova,PD,35137,IT,LEED v4.1 O+M: Interiors,59,Silver,2021-12-23 00:00:00,Yes,Corporate: Privately Held,187.1000,Sq m,,Retail: Enclosed Mall,Prada SpA,2021-09-02 00:00:00
1000148715,No,Prada Bari Via Sparano da Bari,Via Sparano da Bari 136,Bari,BA,70121,IT,LEED v4.1 O+M: Interiors,58,Silver,2021-12-23 00:00:00,Yes,Corporate: Privately Held,591.0000,Sq m,,Retail: Enclosed Mall,Prada SpA,2021-09-02 00:00:00
1000148717,No,Prada Barcelona Passeig de Gracia,"Passeig de GrÓcia, 88",Barcelona,Barcelona,08008,ES,LEED v4.1 O+M: Interiors,64,Gold,2021-12-23 00:00:00,Yes,Corporate: Privately Held,1509.0000,Sq m,,Retail: Enclosed Mall,Prada SpA,2021-09-02 00:00:00
1000148719,No,Miu Miu Lisbon Avenida da Liberdade,Avenida da Liberdade 92,Lisboa,Grande Lisboa,1250-096,PT,LEED v4.1 O+M: Interiors,65,Gold,2021-12-23 00:00:00,Yes,Corporate: Privately Held,410.0000,Sq m,,Retail: Enclosed Mall,Prada SpA,2021-09-02 00:00:00
1000148727,No,Prada Venezia Salizada San Moise,Salizada San MoisÞ 1464-1469,Venice,VE,30124,IT,LEED v4.1 O+M: Interiors,65,Gold,2021-12-23 00:00:00,Yes,Corporate: Privately Held,1104.0400,Sq m,,Retail: Enclosed Mall,Prada SpA,2021-09-02 00:00:00
1000148729,No,Outlet Prada Levanella The Space,Via Aretina 403,Montevarchi,AR,52052,IT,LEED v4.1 O+M: Interiors,59,Silver,2021-12-23 00:00:00,Yes,Corporate: Privately Held,2765.0000,Sq m,,Retail: Enclosed Mall,Prada SpA,2021-09-02 00:00:00
1000148733,No,Prada Napoli Via Filangieri,Via Filangieri 26,Naples,NA,80121,IT,LEED v4.1 O+M: Interiors,62,Gold,2021-12-23 00:00:00,Yes,Corporate: Privately Held,757.0000,Sq m,,Retail: Enclosed Mall,Prada SpA,2021-09-02 00:00:00
1000148735,No,Prada Milano Galleria V.Emanuele Woman,"Galleria Vittorio Emanuele II, 63/65",Milan,MI,20121,IT,LEED v4.1 O+M: Interiors,66,Gold,2021-12-23 00:00:00,Yes,Corporate: Privately Held,1439.0000,Sq m,,Retail: Enclosed Mall,Prada SpA,2021-09-02 00:00:00
1000148737,No,Outlet Parma Fidenza Village,Via Federico Fellini 1,Fidenza,PO,43036,IT,LEED v4.1 O+M: Interiors,69,Gold,2021-12-23 00:00:00,Yes,Corporate: Privately Held,460.0000,Sq m,,Retail: Enclosed Mall,Prada SpA,2021-09-02 00:00:00
1000148740,No,Prada Milano Montenapoleone Woman,Via Montenapoleone 8,Milan,MI,20121,IT,LEED v4.1 O+M: Interiors,67,Gold,2021-12-23 00:00:00,Yes,Corporate: Privately Held,1089.0000,Sq m,,Retail: Enclosed Mall,Prada SpA,2021-09-02 00:00:00
1000148742,No,S752 Prada Dubai Mall of Emirates,Sheikh Zayed Rd - Al BarshaAl Barsha 1,Dubai,AE,261916,AE,LEED v4.1 O+M: Interiors,65,Gold,2022-09-30 00:00:00,Yes,Corporate: Privately Held,1139.5000,Sq m,,Retail: Enclosed Mall,Prada SpA,2021-09-02 00:00:00
1000148744,No,Miu Miu Bologna Galleria Cavour,Galleria Cavour 9/M,Bologna,BO,40124,IT,LEED v4.1 O+M: Interiors,67,Gold,2021-12-23 00:00:00,Yes,Corporate: Privately Held,580.0000,Sq m,,Retail: Enclosed Mall,Prada SpA,2021-09-02 00:00:00
1000148746,No,Outlet Prada Sano Premium,"Sano Premium Outlet, 2058 Koena-cho",Sano,Tochigi-ken,327-0822,JP,LEED v4.1 O+M: Interiors,69,Gold,2021-12-23 00:00:00,Yes,Corporate: Privately Held,759.0000,Sq m,,Retail: Enclosed Mall,Prada SpA,2021-09-02 00:00:00
1000148750,No,Prada Kobe Kowa,"27 Naniwamachi, Chuo-ku",Kobe,Hyogo-ken,650-0035,JP,LEED v4.1 O+M: Interiors,64,Gold,2021-12-23 00:00:00,Yes,Corporate: Privately Held,967.5000,Sq m,,Retail: Enclosed Mall,Prada SpA,2021-09-02 00:00:00
1000148752,No,Miu Miu Madrid Calle de Serrano,"Calle de Serrano, 54",Madrid,Madrid,28001,ES,LEED v4.1 O+M: Interiors,69,Gold,2021-12-23 00:00:00,Yes,Corporate: Privately Held,265.0000,Sq m,,Retail: Enclosed Mall,Prada SpA,2021-09-02 00:00:00
1000148754,No,Miu Miu Hong Kong Elements,"Shop 2034 & 2035, Level 2, Elements, 1 A",Hong Kong,KLN,00000,HK,LEED v4.1 O+M: Interiors,64,Gold,2021-12-23 00:00:00,Yes,Corporate: Privately Held,463.0000,Sq m,,Retail: Enclosed Mall,Prada SpA,2021-09-02 00:00:00
1000148756,No,Prada Lugano Via Nassa,Via Nassa 44-46,Lugano,TI,6900,CH,LEED v4.1 O+M: Interiors,68,Gold,2021-12-23 00:00:00,Yes,Corporate: Privately Held,860.0000,Sq m,,Retail: Enclosed Mall,Prada SpA,2021-09-02 00:00:00
1000148758,No,Prada Sao Paulo Cidade Jardim,"Av. MagalhÒes de Castro, 12000 - Morumbi",Sao Paulo,SP,05502-011,BR,LEED v4.1 O+M: Interiors,72,Gold,2021-12-23 00:00:00,Yes,Corporate: Privately Held,417.0000,Sq m,,Retail: Enclosed Mall,Prada SpA,2021-09-02 00:00:00
1000148761,No,Prada Madrid Calle Goya,"Calle de Goya, 4",Madrid,Madrid,28001,ES,LEED v4.1 O+M: Interiors,64,Gold,2021-12-23 00:00:00,Yes,Corporate: Privately Held,208.0000,Sq m,,Retail: Enclosed Mall,Prada SpA,2021-09-02 00:00:00
1000148765,No,S789 MM Rio Village Mall,"AV DAS AMERICAS, 3900- L 113/114 - Barra",Rio de Janeiro,RJ,22631-004,BR,LEED v4.1 O+M: Interiors,69,Gold,2022-11-13 00:00:00,Yes,Corporate: Privately Held,278.0000,Sq m,,Retail: Enclosed Mall,Prada SpA,2021-09-02 00:00:00
1000148767,No,Prada Padova P.zza Garibaldi/Via S.Lucia,"Piazza Garibaldi angolo Via Santa Lucia,",Padova,PD,35122,IT,LEED v4.1 O+M: Interiors,64,Gold,2021-12-23 00:00:00,Yes,Corporate: Privately Held,528.0000,Sq m,,Retail: Enclosed Mall,Prada SpA,2021-09-02 00:00:00
1000148771,No,Prada Bologna Galleria Cavour,Galleria Cavour 1N,Bologna,BO,40124,IT,LEED v4.1 O+M: Interiors,63,Gold,2021-12-23 00:00:00,Yes,Corporate: Privately Held,507.0000,Sq m,,Retail: Enclosed Mall,Prada SpA,2021-09-02 00:00:00
1000148773,No,Miu Miu Venezia San Marco,"Salizada San MoisÚ 1471, San Marco",Venice,VE,30124,IT,LEED v4.1 O+M: Interiors,65,Gold,2021-12-23 00:00:00,Yes,Corporate: Privately Held,307.0000,Sq m,,Retail: Enclosed Mall,Prada SpA,2021-09-02 00:00:00
1000148775,No,Miu Miu San Paolo JK Iguatemi,"Av Juscelino Kubitschek, 2041 Loja 105/1",Sao Paulo,SP,04543-011,BR,LEED v4.1 O+M: Interiors,77,Gold,2021-12-22 00:00:00,Yes,Corporate: Privately Held,253.0000,Sq m,,Retail: Enclosed Mall,Prada SpA,2021-09-02 00:00:00
1000148777,No,Prada Hong Kong Canton Road,"Shop G116-G118, Harbour City,11 Canton R",Hong Kong,KLN,00000,HK,LEED v4.1 O+M: Interiors,61,Gold,2021-12-23 00:00:00,Yes,Corporate: Privately Held,1382.0000,Sq m,,Retail: Enclosed Mall,Prada SpA,2021-09-02 00:00:00
1000148779,No,Miu Miu Dubai Mall Extension,Dubai Mall Fashion Avenue - Dubai - Unit,Dubai,AE,261916,AE,LEED v4.1 O+M: Interiors,67,Gold,2021-12-23 00:00:00,Yes,Corporate: Privately Held,661.0000,Sq m,,Retail: Enclosed Mall,Prada SpA,2021-09-02 00:00:00
1000148780,No,Prada Rio De Janeiro Village Mall,"Av. DAS AMERICAS, 3900 - Barra da Tijuca",Rio de Janeiro,RJ,22640-102,BR,LEED v4.1 O+M: Interiors,70,Gold,2021-12-23 00:00:00,Yes,Corporate: Privately Held,539.0000,Sq m,,Retail: Enclosed Mall,Prada SpA,2021-09-02 00:00:00
1000148782,No,Prada Dubai Mall Extension,Dubai Mall Fashion Avenue - Dubai - Unit,Dubai,AE,261916,AE,LEED v4.1 O+M: Interiors,61,Gold,2021-12-23 00:00:00,Yes,Corporate: Privately Held,1563.0000,Sq m,,Retail: Enclosed Mall,Prada SpA,2021-09-02 00:00:00
1000148785,No,Miu Miu Tokyo Minami Aoyama,"3-17-8 Minami-Aoyama,Minato-ku",Tokyo,Tokyo-to,107-0062,JP,LEED v4.1 O+M: Interiors,59,Silver,2021-12-23 00:00:00,Yes,Corporate: Privately Held,781.5600,Sq m,,Retail: Enclosed Mall,Prada SpA,2021-09-02 00:00:00
1000148792,No,S605 PR Osaka Shinsaibashi FS,"2-8-18 Shinsaibashisuji, Chuo-ku",Osaka,Osaka-fu,542-0085,JP,LEED v4.1 O+M: Interiors,61,Gold,2022-11-13 00:00:00,Yes,Corporate: Privately Held,1437.0000,Sq m,,Retail: Enclosed Mall,Prada SpA,2021-09-02 00:00:00
1000148820,No,Prada Tokyo Miyashita Park,"6-20-10 Jingumae, Shibuya-ku",Tokyo,Tokyo-to,150-0001,JP,LEED v4.1 O+M: Interiors,62,Gold,2021-12-23 00:00:00,Yes,Corporate: Privately Held,307.0000,Sq m,,Retail: Enclosed Mall,Prada SpA,2021-09-02 00:00:00
1000148822,No,Miu Miu Tokyo Ginza Echigoya,2-6-5 Ginza Chuo-ku,Tokyo,Tokyo-to,104-0061,JP,LEED v4.1 O+M: Interiors,62,Gold,2021-12-23 00:00:00,Yes,Corporate: Privately Held,686.9200,Sq m,,Retail: Enclosed Mall,Prada SpA,2021-09-02 00:00:00
1000149115,No,Outlet Prada Bicester Village,Pringle Drive 50,Bicester,OX,OX26 6WN,GB,LEED v4.1 O+M: Interiors,77,Gold,2021-12-22 00:00:00,Yes,Corporate: Privately Held,1090.0000,Sq m,,Retail: Enclosed Mall,Prada SpA,2021-09-09 00:00:00
1000149129,No,Outlet Church's Noventa di Piave,MCARTHUR&GLENN OUTLET Via Marco Polo 1,Noventa di Piave,VE,30020,IT,LEED v4.1 O+M: Interiors,71,Gold,2021-12-23 00:00:00,Yes,Corporate: Privately Held,127.0000,Sq m,,Retail: Enclosed Mall,Prada SpA,2021-09-09 00:00:00
1000149142,No,Outlet Prada Noventa di Piave,Via Marco Polo 1,Noventa di Piave,VE,30020,IT,LEED v4.1 O+M: Interiors,67,Gold,2021-12-23 00:00:00,Yes,Corporate: Privately Held,630.0000,Sq m,,Retail: Enclosed Mall,Prada SpA,2021-09-09 00:00:00
1000149146,No,Prada Vancouver Alberni Street,1098 Alberni Street Vancouver,Vancouver,BC,V6E 1A3,CA,LEED v4.1 O+M: Interiors,71,Gold,2021-12-23 00:00:00,Yes,Corporate: Privately Held,1107.0000,Sq m,,Retail: Enclosed Mall,Prada SpA,2021-09-09 00:00:00
1000149148,No,Church's Roma Via Condotti,Via dei Condotti 57,Rome,RM,00187,IT,LEED v4.1 O+M: Interiors,62,Gold,2021-12-23 00:00:00,Yes,Corporate: Privately Held,112.3000,Sq m,,Retail: Enclosed Mall,Prada SpA,2021-09-09 00:00:00
1000149151,No,Church's Bologna Galleria Cavour,Galleria Cavour 1/H,Bologna,BO,40124,IT,LEED v4.1 O+M: Interiors,66,Gold,2021-12-23 00:00:00,Yes,Corporate: Privately Held,112.0000,Sq m,,Retail: Enclosed Mall,Prada SpA,2021-09-09 00:00:00
1000149153,No,Outlet Church's Leccio,Via Europa 4/B,Leccio,FI,50066,IT,LEED v4.1 O+M: Interiors,65,Gold,2021-12-23 00:00:00,Yes,Corporate: Privately Held,143.0000,Sq m,,Retail: Enclosed Mall,Prada SpA,2021-09-09 00:00:00
1000149155,No,Prada Singapore Marina Bay Sands,"The Shoppes at Marina Bay Sands, 2 Bayfr",Singapore,SG,018972,SG,LEED v4.1 O+M: Interiors,61,Gold,2021-12-23 00:00:00,Yes,Corporate: Privately Held,649.0000,Sq m,,Retail: Enclosed Mall,Prada SpA,2021-09-09 00:00:00
1000149160,No, Prada Bangkok Icon Siam Shopping Center,"Iconsiam Shopping Center Unit No. LM09,",Bangkok,Krung Thep,10600,TH,LEED v4.1 O+M: Interiors,66,Gold,2021-12-23 00:00:00,Yes,Corporate: Privately Held,394.0000,Sq m,,Retail: Enclosed Mall,Prada SpA,2021-09-09 00:00:00
1000149162,No,Prada Sydney Westfield,"Shop 3015, 188 Pitt Street",Sydney,NSW,2000,AU,LEED v4.1 O+M: Interiors,65,Gold,2021-12-23 00:00:00,Yes,Corporate: Privately Held,852.0000,Sq m,,Retail: Enclosed Mall,Prada SpA,2021-09-09 00:00:00
1000149164,No,Prada Macau Galaxy,"Galaxy Macau Resort, Estrada da Baia de",Macau, ,999078,MO,LEED v4.1 O+M: Interiors,59,Silver,2021-12-23 00:00:00,Yes,Corporate: Privately Held,924.0000,Sq m,,Retail: Enclosed Mall,Prada SpA,2021-09-09 00:00:00
1000149166,No,Prada Paris Rue de Grenelle,5/7 rue de Grenelle,Paris,Paris,75006,FR,LEED v4.1 O+M: Interiors,70,Gold,2021-12-23 00:00:00,Yes,Corporate: Privately Held,249.0000,Sq m,,Retail: Enclosed Mall,Prada SpA,2021-09-09 00:00:00
1000149168,No,Prada Montecarlo Hotel de Paris,Avenue des Beaux-Arts,Monaco, ,98000,MC,LEED v4.1 O+M: Interiors,58,Silver,2021-12-23 00:00:00,Yes,Corporate: Privately Held,423.7000,Sq m,,Retail: Enclosed Mall,Prada SpA,2021-09-09 00:00:00
1000149170,No,Prada Taichung Far Eastern,"1/F, Far Eastern, No.251, Sec. 3, Taiwan",Taichung,TWN,407,TW,LEED v4.1 O+M: Interiors,63,Gold,2021-12-23 00:00:00,Yes,Corporate: Privately Held,185.0000,Sq m,,Retail: Enclosed Mall,Prada SpA,2021-09-09 00:00:00
1000149173,No,Miu Miu Shanghai International APM,No. L1-2 on Level 1 and Shop No. L2-2 on,Shanghai,Shanghai,200031,CN,LEED v4.1 O+M: Interiors,80,Platinum,2021-12-23 00:00:00,Yes,Corporate: Privately Held,952.3900,Sq m,,Retail: Enclosed Mall,Prada SpA,2021-09-09 00:00:00
1000149175,No,Prada Cannes Hotel Majestic,10 Boulevard de la Croisette,Cannes,Alpes-Maritimes,06400,FR,LEED v4.1 O+M: Interiors,72,Gold,2021-12-23 00:00:00,Yes,Corporate: Privately Held,509.0000,Sq m,,Retail: Enclosed Mall,Prada SpA,2021-09-09 00:00:00
1000149177,No,Prada Montecarlo One,"One Monte Carlo, Place du Casino",Monaco, ,98000,MC,LEED v4.1 O+M: Interiors,64,Gold,2021-12-23 00:00:00,Yes,Corporate: Privately Held,306.0000,Sq m,,Retail: Enclosed Mall,Prada SpA,2021-09-09 00:00:00
1000149181,No,Prada Shanghai International APM,"Shop 101, Level 1, Shanghai World Trade",Shanghai,Shanghai,200031,CN,LEED v4.1 O+M: Interiors,76,Gold,2021-12-22 00:00:00,Yes,Corporate: Privately Held,1221.0000,Sq m,,Retail: Enclosed Mall,Prada SpA,2021-09-09 00:00:00
1000149185,No,Prada Berlin Kurfurstendamm,Kurfurstendamm 186,Berlin,Berlin,10707,DE,LEED v4.1 O+M: Interiors,67,Gold,2021-12-23 00:00:00,Yes,Corporate: Privately Held,999.2000,Sq m,,Retail: Enclosed Mall,Prada SpA,2021-09-09 00:00:00
1000149187,No,Prada Frankfurt Goethestrasse,Goethestrasse 19,Frankfurt,Hesse,60313,DE,LEED v4.1 O+M: Interiors,62,Gold,2021-12-23 00:00:00,Yes,Corporate: Privately Held,516.6000,Sq m,,Retail: Enclosed Mall,Prada SpA,2021-09-09 00:00:00
1000149189,No,Prada Frankfurt Goetheplatz,Goetheplatz 9-11,Frankfurt,Hesse,60313,DE,LEED v4.1 O+M: Interiors,63,Gold,2021-12-23 00:00:00,Yes,Corporate: Privately Held,874.0000,Sq m,,Retail: Enclosed Mall,Prada SpA,2021-09-09 00:00:00
1000149196,No,Miu Miu Cannes Boulevard de la Croisette,10 Boulevard de la Croisette,Cannes,Alpes-Maritimes,06400,FR,LEED v4.1 O+M: Interiors,68,Gold,2021-12-23 00:00:00,Yes,Corporate: Privately Held,153.1000,Sq m,,Retail: Enclosed Mall,Prada SpA,2021-09-09 00:00:00
1000149198,No,Miu Miu Paris R. du Faubourg St. Honore,1 rue du Faubourg Saint HonorÚ,Paris,Paris,75008,FR,LEED v4.1 O+M: Interiors,74,Gold,2021-12-23 00:00:00,Yes,Corporate: Privately Held,537.0000,Sq m,,Retail: Enclosed Mall,Prada SpA,2021-09-09 00:00:00
1000149201,No,Prada Bruxelles The Hotel,Boulevard de Waterloo 38,Bruxelles,Brussels (Capital),1000,BE,LEED v4.1 O+M: Interiors,58,Silver,2021-12-23 00:00:00,Yes,Corporate: Privately Held,890.0000,Sq m,,Retail: Enclosed Mall,Prada SpA,2021-09-09 00:00:00
1000149204,No,Miu Miu Wien Tuchlauben,Tuchlauben 7,Wien,W,1010,AT,LEED v4.1 O+M: Interiors,68,Gold,2021-12-23 00:00:00,Yes,Corporate: Privately Held,537.7100,Sq m,,Retail: Enclosed Mall,Prada SpA,2021-09-09 00:00:00
1000149206,No,Prada Munich Residenzstrasse,Residenzstra?e 10,Munich,Bavaria,80333,DE,LEED v4.1 O+M: Interiors,60,Gold,2021-12-23 00:00:00,Yes,Corporate: Privately Held,1035.0000,Sq m,,Retail: Enclosed Mall,Prada SpA,2021-09-09 00:00:00
1000149208,No,Outlet Prada Metzingen,Reutlinger str. 73/2,Metzingen,Baden-Wurttemberg,72555,DE,LEED v4.1 O+M: Interiors,69,Gold,2021-12-23 00:00:00,Yes,"Educational: College, Private",1600.0000,Sq m,,Retail: Enclosed Mall,Prada SpA,2021-09-09 00:00:00
1000149210,No,Prada Wien Bognergasse,Bognergasse 4,Wien,W,1010,AT,LEED v4.1 O+M: Interiors,71,Gold,2021-12-23 00:00:00,Yes,"Educational: College, Private",1426.5000,Sq m,,Retail: Enclosed Mall,Prada SpA,2021-09-09 00:00:00
1000149213,No,Outlet Prada Roermond Designer,Prada Designer Outlet Centre Roermond B.,Roermond,Limburg,6041 TD,NL,LEED v4.1 O+M: Interiors,73,Gold,2021-12-23 00:00:00,Yes,Corporate: Privately Held,799.0000,Sq m,,Retail: Enclosed Mall,Prada SpA,2021-09-09 00:00:00
1000149215,No,Prada Capri Via Roma,"Via Roma, 2",Capri,NA,80076,IT,LEED v4.1 O+M: Interiors,64,Gold,2021-12-23 00:00:00,Yes,Corporate: Privately Held,836.0000,Sq m,,Retail: Enclosed Mall,Prada SpA,2021-09-09 00:00:00
1000149218,No,Miu Miu Torino Via Lagrange,Via Lagrange 6c,Turin,TO,10123,IT,LEED v4.1 O+M: Interiors,65,Gold,2021-12-23 00:00:00,Yes,Corporate: Privately Held,426.0000,Sq m,,Retail: Enclosed Mall,Prada SpA,2021-09-09 00:00:00
1000149220,No,Outlet Prada Ingolstadt Village F. S.,"Otto-Hahn-Stra?e 1, Unit 109,110",Ingolstadt,Bavaria,85055,DE,LEED v4.1 O+M: Interiors,75,Gold,2021-12-23 00:00:00,Yes,Corporate: Privately Held,329.4000,Sq m,,Retail: Enclosed Mall,Prada SpA,2021-09-09 00:00:00
1000149222,No,SB18-S152 Space Outlet Mendrisio,Centro Foxtown - Via Maspoli 18,Mendrisio,TI,6850,CH,LEED v4.1 O+M: Interiors,77,Gold,2021-12-22 00:00:00,Yes,Corporate: Privately Held,298.0000,Sq m,,Retail: Enclosed Mall,Prada SpA,2021-09-09 00:00:00
1000149224,No,Prada Amsterdam PC Hoofstraat,Pc Hoofstraat 63-H,Amsterdam,Noord-Holland,1071 BN,NL,LEED v4.1 O+M: Interiors,66,Gold,2021-12-23 00:00:00,Yes,Corporate: Privately Held,550.0000,Sq m,,Retail: Enclosed Mall,Prada SpA,2021-09-09 00:00:00
1000149226,No,Miu Miu Firenze Via Roma,Via Roma 8r,Florence,FI,50123,IT,LEED v4.1 O+M: Interiors,67,Gold,2021-12-23 00:00:00,Yes,Corporate: Privately Held,215.0000,Sq m,,Retail: Enclosed Mall,Prada SpA,2021-09-09 00:00:00
1000149231,No,Prada Prague Parizska,Parizska 124/16,Prague,Praha,110 00,CZ,LEED v4.1 O+M: Interiors,67,Gold,2021-12-23 00:00:00,Yes,Corporate: Privately Held,797.0000,Sq m,,Retail: Enclosed Mall,Prada SpA,2021-09-09 00:00:00
1000149234,No,Prada Forte dei Marmi Via Carducci,"Via Carducci, 2 Ang. Via IV Novembre",Forte dei Marmi,LU,55042,IT,LEED v4.1 O+M: Interiors,65,Gold,2021-12-23 00:00:00,Yes,Corporate: Privately Held,350.2000,Sq m,,Retail: Enclosed Mall,Prada SpA,2021-09-09 00:00:00
1000149237,No,Prada Istanbul Istinye Park,"P#nar, Tarabya Bay#r# Cd., Katar Cad. #s",Istanbul,Adana,34460,TR,LEED v4.1 O+M: Interiors,60,Gold,2021-12-23 00:00:00,Yes,Corporate: Privately Held,750.0000,Sq m,,Retail: Enclosed Mall,Prada SpA,2021-09-09 00:00:00
1000149243,No,Miu Miu Roma Via del Babuino,Via del Babuino 9,Rome,RM,00187,IT,LEED v4.1 O+M: Interiors,66,Gold,2021-12-23 00:00:00,Yes,Corporate: Privately Held,404.8000,Sq m,,Retail: Enclosed Mall,Prada SpA,2021-09-09 00:00:00
1000149245,No,Prada Firenze Via Tornabuoni,Via de' Tornabuoni 53r/67r,Florence,FI,50123,IT,LEED v4.1 O+M: Interiors,61,Gold,2021-12-23 00:00:00,Yes,Corporate: Privately Held,1600.0000,Sq m,,Retail: Enclosed Mall,Prada SpA,2021-09-09 00:00:00
1000149247,No,Outlet Prada Leccio The Mall,Via Europa 8,Leccio,FI,50066,IT,LEED v4.1 O+M: Interiors,63,Gold,2021-12-23 00:00:00,Yes,Corporate: Privately Held,3243.9000,Sq m,,Retail: Enclosed Mall,Prada SpA,2021-09-09 00:00:00
1000149249,No,Prada Istanbul Nisantasi,"Harbiye, Abdi #pekþi Cd. No:34, #i#li",Istanbul,Istanbul,34367,TR,LEED v4.1 O+M: Interiors,63,Gold,2021-12-23 00:00:00,Yes,Corporate: Privately Held,1036.0000,Sq m,,Retail: Enclosed Mall,Prada SpA,2021-09-09 00:00:00
1000149250,No,Miu Miu Forte dei Marmi Via Carducci,"Via Carducci, 41",Forte dei Marmi,LU,55042,IT,LEED v4.1 O+M: Interiors,63,Gold,2021-12-23 00:00:00,Yes,Corporate: Privately Held,128.9000,Sq m,,Retail: Enclosed Mall,Prada SpA,2021-09-09 00:00:00
1000149254,No,Prada Torino Via Lagrange,Via Lagrange 2q,Turin,TO,10123,IT,LEED v4.1 O+M: Interiors,65,Gold,2021-12-23 00:00:00,Yes,Corporate: Privately Held,1152.0000,Sq m,,Retail: Enclosed Mall,Prada SpA,2021-09-09 00:00:00
1000149256,No,Prada Saint Petersburg Bolshaya K. St.,"Bolshaya Konyushennaya St, 13",Saint Petersburg,c.St-Peterburg,191186,RU,LEED v4.1 O+M: Interiors,62,Gold,2021-12-23 00:00:00,Yes,Corporate: Privately Held,395.0000,Sq m,,Retail: Enclosed Mall,Prada SpA,2021-09-09 00:00:00
1000149258,No,S103 Sloane Street Prada,43-45 Sloane Street,London,LO,SW1X 9LU,GB,LEED v4.1 O+M: Interiors,66,Gold,2022-11-13 00:00:00,Yes,Corporate: Privately Held,1471.7000,Sq m,,Retail: Enclosed Mall,Prada SpA,2021-09-09 00:00:00
1000149260,No,Miu Miu Istanbul Istinye Park,"P#nar, Katar Cd No:73, #stinye Park AVM,",Istanbul,Istanbul,34460,TR,LEED v4.1 O+M: Interiors,72,Gold,2021-12-23 00:00:00,Yes,Corporate: Privately Held,283.0000,Sq m,,Retail: Enclosed Mall,Prada SpA,2021-09-09 00:00:00
1000149270,No,Prada Istanbul Zorlu Center,"Ortak÷y Mah., Zincirlikuyu Caddesi, Be#i",Istanbul,Istanbul,34340,TR,LEED v4.1 O+M: Interiors,64,Gold,2021-12-23 00:00:00,Yes,Corporate: Privately Held,945.0000,Sq m,,Retail: Enclosed Mall,Prada SpA,2021-09-09 00:00:00
1000149272,No,Miu Miu Istanbul Zorlu Center,"Ortak÷y Mah., Zincirlikuyu Caddesi, Be#i",Istanbul,Istanbul,34340,TR,LEED v4.1 O+M: Interiors,66,Gold,2021-12-23 00:00:00,Yes,Corporate: Privately Held,221.0000,Sq m,,Retail: Enclosed Mall,Prada SpA,2021-09-09 00:00:00
1000149281,No,Prada London Old Bond Street,16-18 Old Bond Street,London,LO,W1S 4PS,GB,LEED v4.1 O+M: Interiors,68,Gold,2021-12-23 00:00:00,Yes,Corporate: Privately Held,1905.0000,Sq m,,Retail: Enclosed Mall,Prada SpA,2021-09-09 00:00:00
1000149283,No,Prada Stockholm Birger Jarlsgatan,Birger Jarlsgatan 11,Stockholm,Stockholms Lõn,111 45,SE,LEED v4.1 O+M: Interiors,78,Gold,2021-12-22 00:00:00,Yes,Corporate: Privately Held,604.2000,Sq m,,Retail: Enclosed Mall,Prada SpA,2021-09-09 00:00:00
1000149292,No,Miu Miu London New Bond Street,150 New Bond Street,London,LO,W1S 2TU,GB,LEED v4.1 O+M: Interiors,66,Gold,2021-12-23 00:00:00,Yes,Corporate: Privately Held,697.8000,Sq m,,Retail: Enclosed Mall,Prada SpA,2021-09-09 00:00:00
1000149561,No,FENDI New York Soho,"Space NK Greene, 99 Greene St",New York,NY,10012,US,LEED v4.1 O+M: Interiors,67,Gold,2021-12-21 00:00:00,Yes,Corporate: Publicly Traded,495.0000,Sq m,,Retail: Other Retail,FENDI Srl,2021-09-17 00:00:00
1000149664,No,FENDI Tokyo Ginza Six,"Ginza Six 6-10-1, Ginza, Chuo-Ku",Tokyo,Tokyo-to,104-0061,JP,LEED v4.1 O+M: Interiors,65,Gold,2021-12-21 00:00:00,Yes,Corporate: Publicly Traded,1041.0000,Sq m,,Retail: Other Retail,FENDI Srl,2021-09-23 00:00:00
1000149666,No,FENDI Geneva Rhone,Rue du Rh¶ne 62,Geneve,GE,1204,CH,LEED v4.1 O+M: Interiors,73,Gold,2021-12-21 00:00:00,Yes,Corporate: Publicly Traded,650.0000,Sq m,,Retail: Other Retail,FENDI Srl,2021-09-23 00:00:00
1000149668,No,FENDI Paris Montaigne,51 Avenue Montaigne,Paris,Paris,75008,FR,LEED v4.1 O+M: Interiors,68,Gold,2021-12-21 00:00:00,Yes,Corporate: Publicly Traded,1173.0000,Sq m,,Retail: Other Retail,FENDI Srl,2021-09-23 00:00:00
1000149678,No,FENDI London New Bond,New Bond Street 141,London,LO,W1S 2BS,GB,LEED v4.1 O+M: Interiors,69,Gold,2021-12-21 00:00:00,Yes,Corporate: Publicly Traded,1041.0000,Sq m,,Retail: Other Retail,FENDI Srl,2021-09-23 00:00:00
1000149684,No,FENDI Dubai Mall,"The Dubai Mall, Doha Street",Dubai,AE,29948,AE,LEED v4.1 O+M: Interiors,69,Gold,2021-12-21 00:00:00,Yes,Corporate: Publicly Traded,645.0000,Sq m,,Retail: Other Retail,FENDI Srl,2021-09-23 00:00:00
1000149686,No,FENDI Barcelona Paseo De Gracia,"Passeig de GrÓcia, 83",Barcelona,Barcelona,08008,ES,LEED v4.1 O+M: Interiors,75,Gold,2021-12-21 00:00:00,Yes,Corporate: Publicly Traded,618.0000,Sq m,,Retail: Other Retail,FENDI Srl,2021-09-23 00:00:00
1000149688,No,FENDI Roma Palazzo,Largo Goldoni 420,Roma,RM,00187,IT,LEED v4.1 O+M: Interiors,65,Gold,2021-12-21 00:00:00,Yes,Corporate: Publicly Traded,2247.0000,Sq m,,Retail: Other Retail,FENDI Srl,2021-09-23 00:00:00
1000149690,No,FENDI Munich Maximilianstrasse,Maximilianstra?e 12-14,Munchen,Bavaria,80539,DE,LEED v4.1 O+M: Interiors,70,Gold,2021-12-21 00:00:00,Yes,Corporate: Publicly Traded,723.0000,Sq m,,Retail: Other Retail,FENDI Srl,2021-09-23 00:00:00
1000149692,No,FENDI Singapore Ngee Ann City,"391 ORCHARD ROAD, NGEE ANN CITY, #01-30/",Singapore,SG,238872,SG,LEED v4.1 O+M: Interiors,70,Gold,2021-12-21 00:00:00,Yes,Corporate: Publicly Traded,296.0000,Sq m,,Retail: Other Retail,FENDI Srl,2021-09-23 00:00:00
1000149694,No,FENDI Kuala Lumpur Pavilion,"Level 2 & 3, Pavilion Shopping Centre, 1",Kuala Lumpur,JOH,55100,MY,LEED v4.1 O+M: Interiors,67,Gold,2021-12-21 00:00:00,Yes,Corporate: Publicly Traded,315.0000,Sq m,,Retail: Other Retail,FENDI Srl,2021-09-23 00:00:00
1000149700,No,FENDI Paris Saint Honore,265 Rue Saint HonorÚ,Paris,Paris,75001,FR,LEED v4.1 O+M: Interiors,72,Gold,2021-12-21 00:00:00,Yes,Corporate: Publicly Traded,485.0000,Sq m,,Retail: Other Retail,FENDI Srl,2021-09-23 00:00:00
1000149702,No,FENDI Shanghai Ifc Woman,"Shop L1-21-2 & L2-21-2, Building D, Shan",Shanghai,Shanghai,200020,CN,LEED v4.1 O+M: Interiors,65,Gold,2021-12-21 00:00:00,Yes,Corporate: Publicly Traded,268.0000,Sq m,,Retail: Other Retail,FENDI Srl,2021-09-23 00:00:00
1000149710,No,FENDI Hong Kong Canton Road,"Shop G113, G/F, Harbour City, 7 - 25 Can",Kowloon,HK,00000,HK,LEED v4.1 O+M: Interiors,67,Gold,2021-12-21 00:00:00,Yes,Corporate: Publicly Traded,540.0000,Sq m,,Retail: Other Retail,FENDI Srl,2021-09-23 00:00:00
1000149712,No,FENDI Houston Galleria,5015 Westheimer Rd,Houston,TX,77056,US,LEED v4.1 O+M: Interiors,66,Gold,2021-12-21 00:00:00,Yes,Corporate: Publicly Traded,361.0000,Sq m,,Retail: Other Retail,FENDI Srl,2021-09-23 00:00:00
1000149720,No,FENDI Woodbury Outlet,"Woodbury Common Outlet, 844 Adirondack W",Central Valley,NY,10917,US,LEED v4.1 O+M: Interiors,72,Gold,2021-12-21 00:00:00,Yes,Corporate: Publicly Traded,270.0000,Sq m,,Retail: Other Retail,FENDI Srl,2021-09-23 00:00:00
1000149924,No,Gucci Outlet Leccio,The Mall Outlet Via Europa 15/17 Leccio Reggello,Firenze,FI,50066,IT,LEED v4.1 O+M: Interiors,69,Gold,2022-03-11 00:00:00,Yes,Corporate: Privately Held,3911.0000,Sq ft,,Retail: Other Retail,Gucci,2021-09-29 00:00:00
1000150301,No,Embassy TechZone Pvt Ltd - RIO,"RIO-PL-03, Rajiv Gandhi Infotech park Phase II, Hinjewadi",Pune,Maharashtra,411057,IN,LEED v4.1 O+M: EB,85,Platinum,2022-03-21 00:00:00,Yes,Corporate: Privately Held,35288.0000,Sq ft,,Retail: Restaurant/Cafeteria,Embassy Office Parks REIT,2021-10-11 00:00:00
1000150651,No,JW Marriott Washington DC,1331 Pennsylvania Avenue NW,Washington,DC,20004,US,LEED v4.1 O+M: EB,63,Gold,2022-08-19 00:00:00,Yes,"Investor: REIT, Publicly traded",677928.0000,Sq ft,,"Lodging: Hotel/Motel/Resort, Full Service","Host Hotels & Resorts, Inc.",2021-10-18 00:00:00
1000151981,No,China Import and Export Fair Complex B,No.382 Yuejiang Zhong Road,Guangzhou,Guangdong,510335,CN,LEED v4 O+M: EB,87,Platinum,2023-01-28 00:00:00,Yes,Corporate: Publicly Traded,315000.0000,Sq m,,Public Assembly: Other Assembly,China Foreign Trade Centre,2021-11-24 00:00:00
1000151982,No,China Import and Export Fair Complex C,No. 980 Xingang Dong Road,Guangzhou,Guangdong,510335,CN,LEED v4 O+M: EB,86,Platinum,2023-01-28 00:00:00,Yes,Corporate: Publicly Traded,174200.0000,Sq m,,Public Assembly: Other Assembly,China Foreign Trade Centre,2021-11-24 00:00:00
1000152809,No,Gucci Shanghai Village Outlet,No.88 East Shendi Road Shanghai Village,Shanghai,Shanghai,200000,CN,LEED v4.1 O+M: Interiors,69,Gold,2022-03-23 00:00:00,Yes,Corporate: Privately Held,1120.0000,Sq m,,Retail: Other Retail,Gucci,2021-12-13 00:00:00
1000152823,No,Gucci Shanghai Reel,No. 1601 West Nanjing Road Reel Department Store,Shanghai,Shanghai,200000,CN,LEED v4.1 O+M: Interiors,76,Gold,2022-03-23 00:00:00,Yes,Corporate: Privately Held,384.0000,Sq m,,Retail: Other Retail,Gucci,2021-12-13 00:00:00
1000152840,No,Residence Inn Silver Spring v4,12000 Plum Orchard Dr,Silver Spring,MD,20904,US,LEED v4 O+M: HP,80,Platinum,2022-08-15 00:00:00,Yes,Investor: Equity Fund,86245.0000,Sq ft,,"Lodging: Hotel/Motel/Resort, Select Service",BRE Hotels & Resorts,2021-12-13 00:00:00
1000153435,No,Gucci Beijing Chinaworld,"China World Shopping Mall, No. 1 Jian Gu",Beijing,Beijing,100032,CN,LEED v4.1 O+M: Interiors,73,Gold,2022-05-22 00:00:00,Yes,Corporate: Privately Held,844.0000,Sq m,,Retail: Other Retail,Gucci,2021-12-20 00:00:00
1000153448,No,Gucci Beijing SKP WShoes,"87 Jian Guo rd, Chaoyang, Beijing Shop D-4033-1, Shin Kong P",Beijing,Beijing,100025,CN,LEED v4.1 O+M: Interiors,70,Gold,2022-05-12 00:00:00,Yes,Corporate: Privately Held,100.8000,Sq m,,Retail: Other Retail,Gucci,2021-12-20 00:00:00
1000153459,No,Gucci Beijing SKP,"87 Jian Guo rd, Chaoyang, Beijing Shop M1018, Shin Kong Plac",Beijing,Beijing,100025,CN,LEED v4.1 O+M: Interiors,67,Gold,2022-05-06 00:00:00,Yes,Corporate: Privately Held,1167.6700,Sq m,,Retail: Other Retail,Gucci,2021-12-20 00:00:00
1000153463,No,Gucci Shanghai IFC Pudong,"Shop L1-5, Shanghai IFC Mall, No. 8 Cent Pudong District, Sh",Shanghai,Shanghai,200000,CN,LEED v4.1 O+M: Interiors,68,Gold,2022-04-17 00:00:00,Yes,Corporate: Privately Held,847.7300,Sq m,,Retail: Other Retail,Gucci,2021-12-20 00:00:00
1000153471,No,Gucci Beijing Seasons Place,"Seasons Place Shopping Centre, No.2 Jinc",Beijing,Beijing,100020,CN,LEED v4.1 O+M: Interiors,64,Gold,2022-05-22 00:00:00,Yes,Corporate: Privately Held,409.0500,Sq m,,Retail: Other Retail,Gucci,2021-12-20 00:00:00
1000153473,No,Gucci Shanghai IFC Pudong Kids,"Shop L3-3, Shanghai IFC Mall, No. 8 Century Avenue, Lujiazui",Shanghai,Shanghai,200000,CN,LEED v4.1 O+M: Interiors,71,Gold,2022-04-02 00:00:00,Yes,Corporate: Privately Held,125.0000,Sq m,,Retail: Other Retail,Gucci,2021-12-20 00:00:00
1000153615,No,Gucci Shanghai IAPM,"999 Mid Huaihai Rd. L109-110, L209-210",Shanghai,Shanghai,200031,CN,LEED v4.1 O+M: Interiors,66,Gold,2022-05-12 00:00:00,Yes,Corporate: Privately Held,1499.0000,Sq m,,Retail: Other Retail,Gucci,2021-12-22 00:00:00
1000153617,No,Gucci Shanghai Florentia Village Outlet,"No.58 Zhuoyao Road, Pudong New District 1-G1/2/3/4",Shanghai,Shanghai,200000,CN,LEED v4.1 O+M: Interiors,68,Gold,2022-05-07 00:00:00,Yes,Corporate: Privately Held,679.0000,Sq m,,Retail: Other Retail,Gucci,2021-12-22 00:00:00
1000153844,No,Azrieli Center - Hashalom Mall,Menachem Begin 132,Tel Aviv,Tel Aviv,6701101,IL,LEED v4.1 O+M: EB,65,Gold,2022-09-29 00:00:00,Yes,Corporate: Publicly Traded,61110.0000,Sq m,,Retail: Enclosed Mall,Azrieli Group Limited,2022-01-02 00:00:00
1000154594,No,Cartier Chongqing Mix City,"L108, No.55 Xiejiawanzheng Street, Jiulo Chongqing Mix City",Chongqing,Chongqing,400000,CN,LEED v4.1 O+M: Interiors,65,Gold,2022-07-18 00:00:00,Yes,Corporate: Privately Held,347.0000,Sq m,,Retail: Other Retail,Cartier,2022-01-11 00:00:00
1000154596,No,Cartier Qingdao Hisense Olympic,"Shop 115-117, Aomen Road. Nanshi Distric Qingdao Hisense Oly",Qingdao,Shandong,266000,CN,LEED v4.1 O+M: Interiors,61,Gold,2022-08-11 00:00:00,Yes,Corporate: Privately Held,365.0000,Sq m,,Retail: Other Retail,Cartier,2022-01-11 00:00:00
1000154605,No,Cartier Changsha IFS,"L107&L109, No.188 West Jiefang Road, Fur Changsha IFS",Changsha,Hunan,410000,CN,LEED v4.1 O+M: Interiors,69,Gold,2022-08-11 00:00:00,Yes,Corporate: Privately Held,482.0000,Sq m,,Retail: Other Retail,Cartier,2022-01-11 00:00:00
1000154613,No,Cartier Xian SKP,"Shop A1005, No.261 North Changan Road, B Xian SKP",Xian,Shaanxi,710000,CN,LEED v4.1 O+M: Interiors,64,Gold,2022-07-24 00:00:00,Yes,Corporate: Privately Held,288.0000,Sq m,,Retail: Other Retail,Cartier,2022-01-11 00:00:00
1000154622,No,Cartier Shanghai K11,"Shop 103A, No.300 Middle Huaihai Road, H Shanghai K11",Shanghai,Shanghai,200000,CN,LEED v4.1 O+M: Interiors,65,Gold,2023-02-01 00:00:00,Yes,Corporate: Privately Held,525.0000,Sq m,,Retail: Other Retail,Cartier,2022-01-11 00:00:00
1000154624,No,Cartier Xiamen Mix City,"L110, No.99 East Hubin Road, Siming Dist Xiamen Mix City",Xiamen,Fujian,361000,CN,LEED v4.1 O+M: Interiors,70,Gold,2022-08-11 00:00:00,Yes,Corporate: Privately Held,353.0000,Sq m,,Retail: Other Retail,Cartier,2022-01-11 00:00:00
1000154626,No,Cartier Suzhou Matro,"Shop 1033, No.245 Guanqian Street Suzhou Matro",Suzhou,Jiangsu,215000,CN,LEED v4.1 O+M: Interiors,64,Gold,2023-01-17 00:00:00,Yes,Corporate: Privately Held,276.0000,Sq m,,Retail: Other Retail,Cartier,2022-01-11 00:00:00
1000155968,No,"IndusInd Bank, Juhu","Sonbar Building, Plot No. 13,  10th road, Juhu.",Mumbai,Maharashtra,400049,IN,LEED v4.1 O+M: Interiors,80,Platinum,2022-04-26 00:00:00,Yes,Corporate: Publicly Traded,1600.0000,Sq ft,,Retail: Bank Branch,IndusInd Bank Limited,2022-02-16 00:00:00
1000156286,No,THY Operasyon Merkezi Tesisi/ OC-CT,Istanbul Yeni Havalimani C Bolgesi,Istanbul,Istanbul,34283,TR,LEED v4.1 O+M: EB,82,Platinum,2022-10-07 00:00:00,Yes,Investor: Investment Manager,41685.0000,Sq m,,Airport: Other,TURK HAVA YOLLARI A.O.,2022-02-23 00:00:00
1000156750,No,ION Orchard,2 Orchard Turn,Singapore,SG,238801,SG,LEED v4.1 O+M: EB,66,Gold,2023-01-05 00:00:00,Yes,Corporate: Privately Held,83488.7300,Sq m,,Retail: Enclosed Mall,Orchard Turn Retail Investment Pte Ltd,2022-03-06 00:00:00
1000156833,No,E.SUN Commercial Bank Linyuan Branch,"No. 343, Linyuan N. Rd., Linyuan Dist.,",Kaohsiung City,KSH,832,TW,LEED v4.1 O+M: EB,80,Platinum,2022-11-16 00:00:00,Yes,Investor: Bank,1516.0000,Sq m,,Retail: Bank Branch,"E.SUN COMMERCIAL BANK, LTD.",2022-03-09 00:00:00
1000157486,No,Olgerdin Egill Skallagrimsson,Grothals 7-11,Reykjavik, ,110,IS,LEED v4 O+M: EB,63,Gold,2022-11-23 00:00:00,Yes,Corporate: Privately Held,23454.0000,Sq m,,Other,Olgerdin Egill Skallagrimsson,2022-03-24 00:00:00
1000158191,No,ifc mall,"8 Finance St, Central",Hong Kong,HK,000000,HK,LEED v4.1 O+M: EB,84,Platinum,2022-11-21 00:00:00,Yes,Corporate: Publicly Traded,61197.0000,Sq m,,Retail: Enclosed Mall,Sun Hung Kai Properties Limited,2022-04-08 00:00:00
1000158877,No,E.SUN Commercial Bank Nanzi Branch,"No. 980, Junxiao Rd, Nanzih District,",Kaohsiung City,KSH,811,TW,LEED v4.1 O+M: EB,82,Platinum,2022-07-22 00:00:00,Yes,Investor: Bank,805.0000,Sq m,,Retail: Bank Branch,"E.SUN COMMERCIAL BANK, LTD.",2022-04-22 00:00:00
1000158887,No,Five Hotel Jumeirah Village LLC,Five Hotel  Jumeirah Village LLC Jumeirah Village Circle,Dubai,AE,00000,AE,LEED v4.1 O+M: EB,84,Platinum,2022-09-23 00:00:00,Yes,Corporate: Privately Held,633766.0000,Sq ft,,"Lodging: Hotel/Motel/Resort, Full Service",FIVE HOLDINGS,2022-04-22 00:00:00
1000158890,No,FIVE HOTEL FZE,"FIVE HOTEL FZE NO 01, PALM JUMEIRAH,  PO BOX 118561",Dubai,AE,00000,AE,LEED v4.1 O+M: EB,85,Platinum,2022-09-27 00:00:00,Yes,Corporate: Privately Held,498369.0000,Sq ft,,"Lodging: Hotel/Motel/Resort, Full Service",FIVE HOLDINGS,2022-04-22 00:00:00
1000159050,No,Rock Square,"L2 Floor, Rock Square",Guangzhou,Guangdong,510250,CN,LEED v4 O+M: Retail,77,Gold,2022-09-06 00:00:00,Yes,Corporate: Privately Held,80856.0000,Sq m,,Retail: Enclosed Mall,"Guangzhou Starshine Properties Co., Ltd.",2022-04-27 00:00:00
1000159215,No,VOX Cinema in Mirdif City Centre,MIrdif City Center,Dubai,AE,0000,AE,LEED v4.1 O+M: Interiors,60,Gold,2022-09-22 00:00:00,Yes,Corporate: Privately Held,9309.0000,Sq m,,Public Assembly: Entertainment,"Majid Al Futtaim Leisure, Entertainment",2022-04-29 00:00:00
1000159433,No,CapitaMall Wangjing,33 Guangshun North Street,Beijing,Beijing,100102,CN,LEED v4 O+M: Retail,77,Gold,2022-09-06 00:00:00,Yes,Corporate: Privately Held,67460.0000,Sq m,,Retail: Enclosed Mall,CapitaLand China Trust,2022-05-06 00:00:00
1000159445,No,VOX Cinemas in Mall of Emirates,Dubai,Dubai,AE,00000,AE,LEED v4.1 O+M: Interiors,61,Gold,2022-10-14 00:00:00,Yes,Corporate: Privately Held,10175.0000,Sq m,,Public Assembly: Entertainment,"Majid Al Futtaim Leisure, Entertainment",2022-05-09 00:00:00
1000159912,No,Cartier Beijing China World,Beijing China Word,Beijing,Beijing,100000,CN,LEED v4.1 O+M: Interiors,69,Gold,2022-11-03 00:00:00,Yes,Corporate: Privately Held,837.0000,Sq m,,Retail: Other Retail,Cartier,2022-05-18 00:00:00
1000160230,No,Fidenza Shopping Park,Via Federico Fellini,Fidenza,PR,43036,IT,LEED v4.1 O+M: EB,83,Platinum,2022-10-17 00:00:00,Yes,Investor: Investment Manager,26004.3900,Sq m,,Retail: Open Shopping Center,ECF SICAF Spa,2022-05-24 00:00:00
1000160588,No,Hospital Salvalus,"R. Bresser, 1954",Sao Paulo,SP,03164-160,BR,LEED v4.1 O+M: EB,67,Gold,2022-12-19 00:00:00,Yes,Corporate: Privately Held,45075.2000,Sq m,,Healthcare: Inpatient,Notredame Intermedica,2022-06-06 00:00:00
1000161277,No,OPET AKARYAKIT - FOCA BATI ISTASYONU,YANIKKÍY MAHALLES# 518/1 SOK. NO :40/1 MENEMEN,IZMIR,Izmir,35660,TR,LEED v4.1 O+M: EB,71,Gold,2023-01-24 00:00:00,Yes,Corporate: Privately Held,410.7000,Sq m,,Service: Other Service,OPET PETROLCULUK A.S.,2022-06-20 00:00:00
1000161279,No,OPET AKARYAKIT - FOCA DOGU ISTASYONU,YANIKKOY MAHALLESI 518/1 SOK. NO:40 MENEMEN,IZMIR,Izmir,35660,TR,LEED v4.1 O+M: EB,72,Gold,2023-01-24 00:00:00,Yes,Corporate: Privately Held,410.7000,Sq m,,Service: Other Service,OPET PETROLCULUK A.S.,2022-06-20 00:00:00
1000161424,No,Salmoiraghi & Vigano' - Cordusio,"Piazza Cordusio Ang, Via S. Prospero, 1",Milano,MI,20123,IT,LEED v4.1 O+M: Interiors,69,Gold,2022-08-19 00:00:00,Yes,Corporate: Publicly Traded,551.0000,Sq m,,Retail: Other Retail,Luxottica Group SpA,2022-06-23 00:00:00
1000161522,No,Cartier Changchun Charter Times,Changchun Charter Times No.1255 Chongqing Road,Changchun,Jilin,130000,CN,LEED v4.1 O+M: Interiors,64,Gold,2023-02-03 00:00:00,Yes,Corporate: Privately Held,312.0000,Sq m,,Retail: Other Retail,Cartier,2022-06-27 00:00:00
1000161923,No,VOX Cinema in Deira City Center,Dubai,Dubai,AE,00000,AE,LEED v4.1 O+M: Interiors,60,Gold,2022-12-15 00:00:00,Yes,Corporate: Privately Held,11986.7000,Sq m,,Public Assembly: Entertainment,"Majid Al Futtaim Leisure, Entertainment",2022-07-06 00:00:00
1000162321,No,Gucci Hangzhou Tower Men,Hangzhou Tower,Hangzhou,Zhejiang,310000,CN,LEED v4.1 O+M: Interiors,61,Gold,2023-01-17 00:00:00,Yes,Corporate: Privately Held,264.0000,Sq m,,Retail: Other Retail,Gucci,2022-07-13 00:00:00
1000162325,No,Gucci Harbin Charter,Charter shopping center 1104,Harbin,Heilongjiang,150000,CN,LEED v4.1 O+M: Interiors,68,Gold,2022-12-20 00:00:00,Yes,Corporate: Privately Held,752.0000,Sq m,,Retail: Other Retail,Gucci,2022-07-13 00:00:00
1000162359,No,Gucci Shenyang MixC,"Shop 143, Level L1, The MixC No. 288 Qingnian Street, Heping",Shenyang,Liaoning,110000,CN,LEED v4.1 O+M: Interiors,70,Gold,2023-01-04 00:00:00,Yes,Corporate: Privately Held,733.0000,Sq m,,Retail: Other Retail,Gucci,2022-07-14 00:00:00
1000162425,No,Gucci Tianjin Hisense,No.101-102 Tianjin Hisense plaza No.188 Jiefang Road#Heping,Tianjin,Tianjin,300450,CN,LEED v4.1 O+M: Interiors,67,Gold,2022-12-18 00:00:00,Yes,Corporate: Privately Held,424.0000,Sq m,,Retail: Other Retail,Gucci,2022-07-15 00:00:00
1000162541,No,Gucci Chongqing IFS Women,"L319 shop,Chongqing International Financ No. 38, Chengbei St",Chongqing,Chongqing,400000,CN,LEED v4.1 O+M: Interiors,65,Gold,2023-01-11 00:00:00,Yes,Corporate: Privately Held,501.0000,Sq m,,Retail: Other Retail,Gucci,2022-07-18 00:00:00
1000162580,No,West Tampa Branch,3015 W Columbus Dr,Tampa,FL,33607,US,LEED v4.1 O+M: EB,72,Gold,2023-01-11 00:00:00,Yes,Corporate: Publicly Traded,3570.0000,Sq ft,,Retail: Bank Branch,BayFirst National Bank,2022-07-19 00:00:00
1000162612,No,Gucci Guangzhou Taikoo Hui Men,L218&L219#No. 383 Tianhe Road Tianhe Dis,Guangzhou,Guangdong,510000,CN,LEED v4.1 O+M: Interiors,63,Gold,2023-01-18 00:00:00,Yes,Corporate: Privately Held,240.1300,Sq m,,Retail: Other Retail,Gucci,2022-07-19 00:00:00
1000162816,No,Gucci Chongqing Jinying,"No. 101, 201, Chongqing Golden Eagle Wea No. 82, Zourong Roa",Chongqing,Chongqing,400000,CN,LEED v4.1 O+M: Interiors,65,Gold,2022-12-21 00:00:00,Yes,Corporate: Privately Held,781.0000,Sq m,,Retail: Other Retail,Gucci,2022-07-21 00:00:00
1000162856,No,Gucci Wuhan International Plaza,"No.101, L1Wuhan International Plaza Shop No. 690, Jiefang Av",Wuhan,Hubei,430000,CN,LEED v4.1 O+M: Interiors,68,Gold,2022-12-18 00:00:00,Yes,Corporate: Privately Held,758.0000,Sq m,,Retail: Other Retail,Gucci,2022-07-24 00:00:00
1000162992,No,Gucci Kunming Spring City 66,No.21 East Dongfeng Road Kunming Spring,Kunming,Yunnan,650000,CN,LEED v4.1 O+M: Interiors,69,Gold,2022-12-18 00:00:00,Yes,Corporate: Privately Held,475.1400,Sq m,,Retail: Other Retail,Gucci,2022-07-28 00:00:00
1000162997,No,Gucci Chongqing IFS Men,No.38 Chengbei Street,Chongqing,Chongqing,400000,CN,LEED v4.1 O+M: Interiors,66,Gold,2022-12-21 00:00:00,Yes,Corporate: Privately Held,250.0000,Sq m,,Retail: Other Retail,Gucci,2022-07-28 00:00:00
1000163040,No,Gucci Chengdu Florentia Outlet,No.888 Yingxing Road,Chengdu,Sichuan,610000,CN,LEED v4.1 O+M: Interiors,64,Gold,2022-12-15 00:00:00,Yes,Corporate: Privately Held,737.0000,Sq m,,Retail: Other Retail,Gucci,2022-07-28 00:00:00
1000163042,No,Gucci Tianjin Florentia Outlet,Wuqing District,Tianjin,Tianjin,300000,CN,LEED v4.1 O+M: Interiors,64,Gold,2023-01-28 00:00:00,Yes,Corporate: Privately Held,666.0000,Sq m,,Retail: Other Retail,Gucci,2022-07-28 00:00:00
1000163220,No,Gucci Xian SKP Men,No.261 North Changan Road,Xian,Shanxi,710000,CN,LEED v4.1 O+M: Interiors,69,Gold,2023-01-28 00:00:00,Yes,Corporate: Privately Held,201.0000,Sq m,,Retail: Other Retail,Gucci,2022-07-31 00:00:00
1000163225,No,Gucci Foshan Florentia Outlet,No.28 Shugang Road Guicheng Street,Foshan,Guangdong,528000,CN,LEED v4.1 O+M: Interiors,68,Gold,2022-12-15 00:00:00,Yes,Corporate: Privately Held,483.0000,Sq m,,Retail: Other Retail,Gucci,2022-07-31 00:00:00
1000163281,No,Gucci Xian SKP Kids,No.261 North Changan Road,Xian,Shanxi,710000,CN,LEED v4.1 O+M: Interiors,70,Gold,2023-01-28 00:00:00,Yes,Corporate: Privately Held,94.0000,Sq m,,Retail: Other Retail,Gucci,2022-08-01 00:00:00
1000163283,No,Gucci Xian SKP Shoes,No.261 North Changan Road,Xian,Shanxi,710000,CN,LEED v4.1 O+M: Interiors,67,Gold,2023-01-28 00:00:00,Yes,Corporate: Privately Held,140.0000,Sq m,,Retail: Other Retail,Gucci,2022-08-01 00:00:00
1000164102,No,Mall of the Emirates,Mall of the Emirates Al Barsha 1,Dubai,AE,00000,AE,LEED v4.1 O+M: EB,81,Platinum,2022-12-14 00:00:00,Yes,Corporate: Privately Held,2400000.0000,Sq ft,,Retail: Enclosed Mall,"Majid Al Futtaim, Mall of the Emirates,",2022-08-17 00:00:00
1000164106,No,MAF CITY CENTRE AL SHINDAGHA CO. LLC,PO Box 113132,Dubai,AE,113132,AE,LEED v4.1 O+M: EB,84,Platinum,2022-12-14 00:00:00,Yes,Corporate: Privately Held,447000.0000,Sq ft,,Retail: Enclosed Mall,MAJID AL FUTTAIM CITY CENTRE AL SHINDAGH,2022-08-17 00:00:00
1000164112,No,City Center Ajman,"City center Ajman, Al Jurf 2",Ajman,AE,00000,AE,LEED v4.1 O+M: EB,82,Platinum,2022-12-14 00:00:00,Yes,Corporate: Privately Held,1294149.0000,Sq ft,,Retail: Enclosed Mall,City center Ajman BR of Majid Al Futtaim,2022-08-17 00:00:00
1000164260,No,Huasteco Zona Comercial,Av. Central 105,San Luis Potosi,SLP,78395,MX,LEED v4.1 O+M: EB,74,Gold,2022-12-09 00:00:00,Yes,"Investor: REIT, Publicly traded",1059.0000,Sq m,,Retail: Other Retail,FibraMTY,2022-08-18 00:00:00
1000164301,No,D Mart Wai,"Wai Satara DMart, Surur Wai road, Kavant Wai, Satara",Satara,Maharashtra,415516,IN,LEED v4.1 O+M: EB,75,Gold,2022-12-19 00:00:00,Yes,Corporate: Privately Held,37997.0000,Sq ft,,Retail: Convenience Store,Avenue Supermarts Limited,2022-08-19 00:00:00
1000164891,No,McDonald's Tai Wo Restaurant,"Shop No.102, Tai Wo Shopping Mall, Tai Wo Estate, Tai Po, N.",Hong Kong,HK,00000,HK,LEED v4.1 O+M: EB,64,Gold,2022-12-19 00:00:00,Yes,Corporate: Privately Held,456.0000,Sq m,,Retail: Fast Food,ESG consultancy,2022-09-04 00:00:00
1000165810,No,TOTAL Akaryakit Mehmet Sirin PETROL,Mimaroba mahallesi D-100 karayolu caddes B³y³kcekmece,Istanbul,Istanbul,34535,TR,LEED v4.1 O+M: EB,83,Platinum,2023-01-24 00:00:00,Yes,Corporate: Privately Held,761.0000,Sq m,,Service: Other Service,Mehmet Sirin Petrol Tur. Tes. Ins. Dis.,2022-09-21 00:00:00
